{
"type": "FeatureCollection",
"name": "gaston_geology",
"crs": { "type": "name", "properties": { "name": "urn:ogc:def:crs:OGC:1.3:CRS84" } },
"features": [
{ "type": "Feature", "properties": { "UnitLabel": "Mc", "Belt": "Kings Mountain Belt", "Belt2": "Kings Mountain Belt" }, "geometry": { "type": "MultiPolygon", "coordinates": [ [ [ [ -81.3018355, 35.3278299 ], [ -81.2997207, 35.3296574 ], [ -81.2890603, 35.3304164 ], [ -81.2863979, 35.3298316 ], [ -81.2851408, 35.3290231 ], [ -81.2844477, 35.3282168 ], [ -81.2843108, 35.3275279 ], [ -81.2841742, 35.3268387 ], [ -81.2843193, 35.325921300000012 ], [ -81.2847539, 35.324087 ], [ -81.2860435, 35.3196171 ], [ -81.2871877, 35.3162943 ], [ -81.2884653, 35.3133163 ], [ -81.2908774, 35.3089658 ], [ -81.2932822, 35.3055332 ], [ -81.2982275, 35.2991275 ], [ -81.3045769, 35.2923829 ], [ -81.308382, 35.2887264 ], [ -81.3120415, 35.2862165 ], [ -81.3159752, 35.2843961 ], [ -81.3187817, 35.2837188 ], [ -81.3214507, 35.2828111 ], [ -81.3209975, 35.2885468 ], [ -81.3204115, 35.2923315 ], [ -81.3202592, 35.2945111 ], [ -81.3195278, 35.299672 ], [ -81.3190936, 35.3020803 ], [ -81.3182333, 35.3050604 ], [ -81.3170906, 35.3087279 ], [ -81.3155327, 35.3113611 ], [ -81.3134107, 35.3145655 ], [ -81.3093149, 35.319942399999988 ], [ -81.3055013, 35.3244025 ], [ -81.3018355, 35.3278299 ] ] ] ] } },
{ "type": "Feature", "properties": { "UnitLabel": "PzZq", "Belt": "Kings Mountain Belt", "Belt2": "Kings Mountain Belt" }, "geometry": { "type": "MultiPolygon", "coordinates": [ [ [ [ -81.105802, 35.2330031 ], [ -81.1062758, 35.226465 ], [ -81.1068501, 35.2250911 ], [ -81.1082669, 35.2230337 ], [ -81.1127876, 35.2183543 ], [ -81.1198513, 35.2110499 ], [ -81.1233686, 35.2086596 ], [ -81.1278752, 35.205815799999982 ], [ -81.1351834, 35.2021838 ], [ -81.1406671, 35.199229900000013 ], [ -81.1460104, 35.1961605 ], [ -81.1493885, 35.1939983 ], [ -81.1540362, 35.1903509 ], [ -81.156297, 35.1876086 ], [ -81.1585662, 35.1840633 ], [ -81.1611187, 35.1798308 ], [ -81.162393, 35.1777719 ], [ -81.1636613, 35.1766311 ], [ -81.1652114, 35.175376700000015 ], [ -81.1678848, 35.173325 ], [ -81.1704162, 35.1717316 ], [ -81.1728105, 35.1700227 ], [ -81.1801188, 35.1655846 ], [ -81.1754637, 35.17061 ], [ -81.1723589, 35.174036600000015 ], [ -81.1693895, 35.1779231 ], [ -81.1664206, 35.1815798 ], [ -81.1627449, 35.1866098 ], [ -81.1601923, 35.1908424 ], [ -81.1577818, 35.1945019 ], [ -81.1570715, 35.1958751 ], [ -81.155933, 35.1983936 ], [ -81.1525237, 35.2045724 ], [ -81.150097, 35.2101824 ], [ -81.1479607, 35.2147611 ], [ -81.14512, 35.2196803 ], [ -81.1410026, 35.2268876 ], [ -81.1367449, 35.2337496 ], [ -81.1307823, 35.2434708 ], [ -81.1284987, 35.2485076 ], [ -81.1272189, 35.2506807 ], [ -81.1259374, 35.253313 ], [ -81.1252211, 35.2552598 ], [ -81.1205106, 35.2655614 ], [ -81.1193759, 35.2671616 ], [ -81.1178433, 35.2664642 ], [ -81.115221, 35.26163 ], [ -81.1109483, 35.2533436 ], [ -81.108488, 35.2464447 ], [ -81.1068596, 35.2403534 ], [ -81.105802, 35.2330031 ] ] ] ] } },
{ "type": "Feature", "properties": { "UnitLabel": "CZab", "Belt": "Inner Piedmont, Chauga Belt, Smith River Allochthon, and Sauratown Mountain", "Belt2": "Inner Piedmont" }, "geometry": { "type": "MultiPolygon", "coordinates": [ [ [ [ -81.2602942, 35.3753896 ], [ -81.2549438, 35.3781197 ], [ -81.258481, 35.3737749 ], [ -81.2618724, 35.3700032 ], [ -81.2644164, 35.3673752 ], [ -81.2670977, 35.3648623 ], [ -81.2699194, 35.3626944 ], [ -81.2717497, 35.361325299999983 ], [ -81.2744262, 35.3597304 ], [ -81.2775257, 35.3576782 ], [ -81.279496900000012, 35.3561949 ], [ -81.2814719, 35.3543675 ], [ -81.284724, 35.350709 ], [ -81.2857195, 35.3486477 ], [ -81.2872871, 35.3446383 ], [ -81.288847, 35.3417758 ], [ -81.2921066, 35.3362814 ], [ -81.295068, 35.3335397 ], [ -81.2971792, 35.3321715 ], [ -81.2997207, 35.3296574 ], [ -81.3018355, 35.3278299 ], [ -81.3055013, 35.3244025 ], [ -81.3093149, 35.319942399999988 ], [ -81.3134107, 35.3145655 ], [ -81.3155327, 35.3113611 ], [ -81.3170906, 35.3087279 ], [ -81.3182333, 35.3050604 ], [ -81.3190936, 35.3020803 ], [ -81.3210706, 35.2994486 ], [ -81.3227687, 35.296816 ], [ -81.3243296, 35.2938385 ], [ -81.3249046, 35.2914309 ], [ -81.325331, 35.290285 ], [ -81.326188, 35.2871901 ], [ -81.3264735, 35.2862732 ], [ -81.3267587, 35.2858153 ], [ -81.327040599999989, 35.285472 ], [ -81.3274628, 35.2853589 ], [ -81.3277411, 35.285704300000013 ], [ -81.3277336, 35.2869665 ], [ -81.3275851, 35.2882282 ], [ -81.3277188, 35.2890321 ], [ -81.3277185, 35.289491 ], [ -81.3279966, 35.2897217 ], [ -81.3282748, 35.2898373 ], [ -81.3289827, 35.2889221 ], [ -81.3295463, 35.288236 ], [ -81.329973, 35.2870898 ], [ -81.3302618, 35.2859435 ], [ -81.3309736, 35.2838808 ], [ -81.331404, 35.2819317 ], [ -81.331270300000014, 35.2808983 ], [ -81.3314147, 35.280325100000013 ], [ -81.3315559, 35.2798668 ], [ -81.3321191, 35.279639300000014 ], [ -81.3328196, 35.2795272 ], [ -81.3332388, 35.2796436 ], [ -81.3337984, 35.2801048 ], [ -81.3347658, 35.2822887 ], [ -81.3347437, 35.2861903 ], [ -81.3338688, 35.292268699999987 ], [ -81.332857, 35.2975433 ], [ -81.3293015, 35.3059068 ], [ -81.325615, 35.3132364 ], [ -81.3222061, 35.3207968 ], [ -81.3188043, 35.32698 ], [ -81.3163963, 35.3313311 ], [ -81.314697099999989, 35.3340782 ], [ -81.31243, 35.3375119 ], [ -81.3094617, 35.3414014 ], [ -81.3052348, 35.3449416 ], [ -81.301572400000012, 35.347680700000012 ], [ -81.2936827, 35.3532709 ], [ -81.2867869, 35.357143799999989 ], [ -81.2774884, 35.3635304 ], [ -81.2672046, 35.370141300000014 ], [ -81.2602942, 35.3753896 ] ] ] ] } },
{ "type": "Feature", "properties": { "UnitLabel": "Zbt", "Belt": "Kings Mountain Belt", "Belt2": "Kings Mountain Belt" }, "geometry": { "type": "MultiPolygon", "coordinates": [ [ [ [ -81.13572625486556, 35.408101321086882 ], [ -81.1228073, 35.4076459 ], [ -81.1225583, 35.4076379 ], [ -81.104033300000012, 35.4069829 ], [ -81.0941673, 35.4066389 ], [ -81.0838293, 35.4062789 ], [ -81.074712088506629, 35.405960062248035 ], [ -81.0771371, 35.4001432 ], [ -81.0791516, 35.3945325 ], [ -81.0823017, 35.387666100000011 ], [ -81.0846154, 35.3798767 ], [ -81.0869239, 35.3725465 ], [ -81.0882399, 35.3667016 ], [ -81.0881051, 35.3658979 ], [ -81.0876863, 35.365665799999988 ], [ -81.086707, 35.365545399999988 ], [ -81.0861466, 35.3655421 ], [ -81.0852998, 35.3658813 ], [ -81.0840325, 35.3665623 ], [ -81.0802213, 35.3690643 ], [ -81.0745806, 35.3725881 ], [ -81.0661128, 35.37816 ], [ -81.058497, 35.3825892 ], [ -81.0549556, 35.3861246 ], [ -81.0565406, 35.381659 ], [ -81.0572605, 35.3795981 ], [ -81.0589682, 35.3770839 ], [ -81.0616626, 35.3737724 ], [ -81.0644967, 35.3706915 ], [ -81.0681793, 35.3668123 ], [ -81.0712975, 35.3630443 ], [ -81.0732939, 35.3594989 ], [ -81.0744368, 35.3570959 ], [ -81.0756018, 35.3523981 ], [ -81.0770829, 35.3438006 ], [ -81.0775463, 35.3390986 ], [ -81.0774732, 35.3315247 ], [ -81.078538, 35.3220067 ], [ -81.0798429, 35.3173097 ], [ -81.0809957, 35.3138739 ], [ -81.0828382, 35.3115896 ], [ -81.0848124, 35.309994800000013 ], [ -81.089463, 35.3072682 ], [ -81.0941183, 35.3040823 ], [ -81.0986404, 35.299518200000016 ], [ -81.1024693, 35.2944911 ], [ -81.1097094, 35.2837459 ], [ -81.1162423, 35.2734552 ], [ -81.1193759, 35.2671616 ], [ -81.1205106, 35.2655614 ], [ -81.1252211, 35.2552598 ], [ -81.1259374, 35.253313 ], [ -81.1272189, 35.2506807 ], [ -81.1284987, 35.2485076 ], [ -81.1307823, 35.2434708 ], [ -81.1367449, 35.2337496 ], [ -81.1410026, 35.2268876 ], [ -81.14512, 35.2196803 ], [ -81.1479607, 35.2147611 ], [ -81.150097, 35.2101824 ], [ -81.1525237, 35.2045724 ], [ -81.155933, 35.1983936 ], [ -81.1570715, 35.1958751 ], [ -81.1577818, 35.1945019 ], [ -81.1601923, 35.1908424 ], [ -81.1627449, 35.1866098 ], [ -81.1664206, 35.1815798 ], [ -81.1693895, 35.1779231 ], [ -81.1723589, 35.174036600000015 ], [ -81.1754637, 35.17061 ], [ -81.1801188, 35.1655846 ], [ -81.182650099999989, 35.1638761 ], [ -81.185744, 35.161941 ], [ -81.1915049, 35.1587567 ], [ -81.192999955281167, 35.157893030604484 ], [ -81.2098186, 35.1586499 ], [ -81.2149493, 35.158881099999988 ], [ -81.2393614, 35.1599809 ], [ -81.2416894, 35.1600879 ], [ -81.2652419, 35.1609946 ], [ -81.2654954, 35.1610044 ], [ -81.2665347, 35.1610444 ], [ -81.2675225, 35.1610825 ], [ -81.2694495, 35.1611566 ], [ -81.2906754, 35.1619739 ], [ -81.3280428, 35.1634121 ], [ -81.327564400000014, 35.1676179 ], [ -81.3236714, 35.189611899999974 ], [ -81.3238864, 35.208357899999989 ], [ -81.3239034, 35.209790900000016 ], [ -81.3239124, 35.2105079 ], [ -81.3240244, 35.218945900000023 ], [ -81.324023946389374, 35.21898099837518 ], [ -81.3235063, 35.2195903 ], [ -81.3218169, 35.221419800000014 ], [ -81.3190014, 35.223589 ], [ -81.3123842, 35.2297596 ], [ -81.3070183, 35.2368529 ], [ -81.2999608, 35.2456603 ], [ -81.2948739, 35.2530982 ], [ -81.2878057, 35.2630524 ], [ -81.282431, 35.2710623 ], [ -81.2780455, 35.2776991 ], [ -81.275210300000012, 35.2825066 ], [ -81.2726687, 35.2855938 ], [ -81.2692734, 35.2903988 ], [ -81.2647495, 35.2960019 ], [ -81.26122, 35.3001173 ], [ -81.258827, 35.3017131 ], [ -81.2544517, 35.3059396 ], [ -81.2506396, 35.3099389 ], [ -81.2466862, 35.314052 ], [ -81.2432915, 35.3187412 ], [ -81.241167, 35.3218299 ], [ -81.2408721, 35.3237791 ], [ -81.2373535, 35.3258286 ], [ -81.2395007, 35.319412299999989 ], [ -81.2422252, 35.3105891 ], [ -81.2439578, 35.3031382 ], [ -81.2458304, 35.2958029 ], [ -81.248121, 35.2890428 ], [ -81.2504078, 35.2822829 ], [ -81.251838400000011, 35.2782729 ], [ -81.2525519, 35.27644020000001 ], [ -81.254304600000012, 35.2655466 ], [ -81.2565048, 35.250983 ], [ -81.2579863, 35.2389404 ], [ -81.259177, 35.2285029 ], [ -81.2602184, 35.219327100000015 ], [ -81.259847, 35.2119811 ], [ -81.2596078, 35.2058982 ], [ -81.2568718, 35.196476 ], [ -81.2535647, 35.188657700000014 ], [ -81.2452502, 35.176571 ], [ -81.2399653, 35.1716122 ], [ -81.2371802, 35.1697634 ], [ -81.2343904, 35.1686028 ], [ -81.2306155, 35.1678966 ], [ -81.2283756, 35.1682305 ], [ -81.2273939, 35.1686849 ], [ -81.2271086, 35.1691427 ], [ -81.2269636, 35.1697158 ], [ -81.2269628, 35.1701746 ], [ -81.2270995, 35.1705196 ], [ -81.2273761, 35.1712094 ], [ -81.2279303, 35.1719007 ], [ -81.229044, 35.17247960000001 ], [ -81.2291845, 35.1727098 ], [ -81.2290392, 35.1733975 ], [ -81.2284722, 35.1740837 ], [ -81.2281902, 35.1744266 ], [ -81.2270717, 35.1746508 ], [ -81.2259544, 35.174301099999987 ], [ -81.223583499999989, 35.1727983 ], [ -81.2216337, 35.1718709 ], [ -81.2199536, 35.1717481 ], [ -81.218273, 35.171855 ], [ -81.2170097, 35.1723079 ], [ -81.2161686, 35.1728777 ], [ -81.2151822, 35.1739057 ], [ -81.2143336, 35.1748195 ], [ -81.2123565, 35.1774494 ], [ -81.2098158, 35.180535599999985 ], [ -81.2072756, 35.1833922 ], [ -81.2067123, 35.1838483 ], [ -81.2051677, 35.1844147 ], [ -81.2040497, 35.1842945 ], [ -81.2033504, 35.1839469 ], [ -81.2029367, 35.183370800000013 ], [ -81.2026593, 35.1830254 ], [ -81.2022378, 35.1830232 ], [ -81.2011147, 35.1835915 ], [ -81.2005552, 35.1838183 ], [ -81.1998566, 35.1833559 ], [ -81.1993015, 35.1830089 ], [ -81.1994474, 35.1820916 ], [ -81.2010028, 35.1796894 ], [ -81.2019977, 35.1778582 ], [ -81.202283799999989, 35.1770562 ], [ -81.2020068, 35.1765959 ], [ -81.2018702, 35.1763657 ], [ -81.2013079, 35.1762481 ], [ -81.2010299, 35.1763614 ], [ -81.2004626, 35.1770473 ], [ -81.2003216, 35.1772761 ], [ -81.1998991, 35.1775036 ], [ -81.1996211, 35.1776168 ], [ -81.1994807, 35.1775015 ], [ -81.1990629, 35.1771553 ], [ -81.1989266, 35.1766954 ], [ -81.1983726, 35.176004299999988 ], [ -81.198091100000013, 35.1760029 ], [ -81.1978135, 35.176001299999989 ], [ -81.1973916, 35.1759994 ], [ -81.1968322, 35.1761113 ], [ -81.1964097, 35.1764534 ], [ -81.1961279, 35.1767964 ], [ -81.1954236, 35.1772517 ], [ -81.1944378, 35.1780503 ], [ -81.1933103, 35.179192199999989 ], [ -81.1920419, 35.1804482 ], [ -81.1902099, 35.182274899999982 ], [ -81.1889329, 35.1843343 ], [ -81.1870903, 35.1876528 ], [ -81.1849634, 35.1908554 ], [ -81.1835533, 35.1925695 ], [ -81.1814302, 35.1954275 ], [ -81.1797335, 35.197828899999983 ], [ -81.1771909, 35.2009143 ], [ -81.172096700000012, 35.2078882 ], [ -81.1688395, 35.2125762 ], [ -81.16599, 35.2188728 ], [ -81.1621422, 35.2274592 ], [ -81.1604205, 35.2324994 ], [ -81.1588488, 35.2363927 ], [ -81.1562838, 35.2421169 ], [ -81.1544292, 35.2464676 ], [ -81.1528262, 35.2542623 ], [ -81.1516519, 35.2609116 ], [ -81.151041100000015, 35.2672198 ], [ -81.150566500000011, 35.2739877 ], [ -81.1507778, 35.2824803 ], [ -81.151925, 35.2967159 ], [ -81.1546416, 35.3075168 ], [ -81.1570863, 35.3173984 ], [ -81.1607879, 35.3277455 ], [ -81.1622908, 35.3328022 ], [ -81.1635172, 35.3370544 ], [ -81.1638956, 35.3424496 ], [ -81.1638494, 35.3486458 ], [ -81.162958, 35.3546082 ], [ -81.1619277, 35.3610289 ], [ -81.161177100000018, 35.366992 ], [ -81.1601675, 35.3706587 ], [ -81.1592991, 35.3740967 ], [ -81.156711, 35.381771 ], [ -81.1547116, 35.3863505 ], [ -81.1535755, 35.3881803 ], [ -81.1524409, 35.3894367 ], [ -81.1514561, 35.390005099999989 ], [ -81.1508912, 35.3902316 ], [ -81.1501895, 35.3903427 ], [ -81.1496297, 35.3901103 ], [ -81.1492111, 35.3897637 ], [ -81.1489335, 35.3894178 ], [ -81.1487964, 35.3891878 ], [ -81.1483777, 35.3889558 ], [ -81.1478171, 35.3888381 ], [ -81.1473933, 35.3891801 ], [ -81.1471063, 35.3897524 ], [ -81.146682, 35.390324 ], [ -81.1461163, 35.3908944 ], [ -81.1456929, 35.3911219 ], [ -81.1454106, 35.391235 ], [ -81.1447089, 35.3912314 ], [ -81.1441491, 35.3909988 ], [ -81.143871600000011, 35.3906531 ], [ -81.1435989, 35.3897336 ], [ -81.1439172, 35.38526 ], [ -81.1452611, 35.3752841 ], [ -81.1462929, 35.3688637 ], [ -81.146888, 35.3648507 ], [ -81.1470455, 35.3625563 ], [ -81.1469286, 35.36003130000001 ], [ -81.1467992, 35.3583095 ], [ -81.1465317, 35.3568162 ], [ -81.1464049, 35.3554385 ], [ -81.1462747, 35.353946 ], [ -81.1460069, 35.3525676 ], [ -81.1460133, 35.3515348 ], [ -81.1460324, 35.349469499999984 ], [ -81.1459013, 35.3483212 ], [ -81.1459125, 35.3468296 ], [ -81.1459173, 35.3462559 ], [ -81.1460644, 35.3453387 ], [ -81.1460743, 35.3441911 ], [ -81.14608, 35.3432733 ], [ -81.1458066, 35.342698 ], [ -81.1458074, 35.3424685 ], [ -81.1453887, 35.342236799999988 ], [ -81.1446878, 35.3421183 ], [ -81.1439864, 35.3422291 ], [ -81.1422873, 35.3440559 ], [ -81.1390168, 35.3496611 ], [ -81.1378659, 35.3530972 ], [ -81.1364315, 35.3571057 ], [ -81.1359872, 35.3598574 ], [ -81.1359664, 35.3623817 ], [ -81.1359555, 35.3637587 ], [ -81.1359498, 35.3645617 ], [ -81.1356619, 35.365478200000013 ], [ -81.1350965, 35.3660489 ], [ -81.1345313, 35.3665049 ], [ -81.1338297, 35.3666158 ], [ -81.13313, 35.3661531 ], [ -81.1323033, 35.3643125 ], [ -81.131785400000012, 35.3590313 ], [ -81.1318159, 35.3555887 ], [ -81.1322655, 35.352263399999984 ], [ -81.1329825, 35.3503168 ], [ -81.1355472, 35.3452816 ], [ -81.1365527, 35.342189 ], [ -81.1381265, 35.3386403 ], [ -81.138844, 35.3364639 ], [ -81.1394296, 35.3334834 ], [ -81.1397279, 35.3313049 ], [ -81.1398886, 35.3290109 ], [ -81.1394917, 35.325910400000012 ], [ -81.1388225, 35.3220052 ], [ -81.1377245, 35.3190157 ], [ -81.1362168, 35.315105699999989 ], [ -81.1352496, 35.313264700000012 ], [ -81.1345586, 35.3122281 ], [ -81.1338632, 35.3115357 ], [ -81.1330226, 35.3111869 ], [ -81.1323254, 35.3110683 ], [ -81.1309198, 35.3112901 ], [ -81.1295123, 35.3120856 ], [ -81.1290831, 35.313116 ], [ -81.128786, 35.3149505 ], [ -81.1287682, 35.3174749 ], [ -81.128187200000013, 35.3198814 ], [ -81.1274763, 35.321025 ], [ -81.126346700000013, 35.3219366 ], [ -81.1257827, 35.3220484 ], [ -81.1246633, 35.3218126 ], [ -81.1241139, 35.3205473 ], [ -81.1224765, 35.31537440000001 ], [ -81.1215105, 35.3133034 ], [ -81.1209607, 35.3122676 ], [ -81.120265, 35.31169 ], [ -81.1191463, 35.311224800000012 ], [ -81.1180262, 35.3112185 ], [ -81.116761, 35.3115556 ], [ -81.1150719, 35.3123493 ], [ -81.113804800000011, 35.3131454 ], [ -81.1125283, 35.3148594 ], [ -81.1122352, 35.316349699999989 ], [ -81.1117908, 35.3189865 ], [ -81.1121483, 35.3265619 ], [ -81.1130567, 35.335058799999985 ], [ -81.1138233, 35.343784 ], [ -81.1144751, 35.3497546 ], [ -81.1151399, 35.3537748 ], [ -81.115536, 35.3568751 ], [ -81.1171732, 35.3621628 ], [ -81.1179932, 35.3649215 ], [ -81.120065, 35.3687199 ], [ -81.1233838, 35.3741317 ], [ -81.1269772, 35.3809218 ], [ -81.130297, 35.3863334 ], [ -81.132914, 35.3923147 ], [ -81.1347035, 35.3966849 ], [ -81.1356507, 35.4010505 ], [ -81.13572625486556, 35.408101321086882 ] ] ] ] } },
{ "type": "Feature", "properties": { "UnitLabel": "Mc", "Belt": "Inner Piedmont, Chauga Belt, Smith River Allochthon, and Sauratown Mountain", "Belt2": "Inner Piedmont" }, "geometry": { "type": "MultiPolygon", "coordinates": [ [ [ [ -81.357930007787274, 35.299785448281625 ], [ -81.3598604, 35.3019749 ], [ -81.361392070017857, 35.304772831017061 ], [ -81.3614049, 35.304993399999987 ], [ -81.3613873, 35.3087799 ], [ -81.3610918, 35.3111887 ], [ -81.360803, 35.3130235 ], [ -81.3598069, 35.3153151 ], [ -81.359384100000014, 35.3162315 ], [ -81.3583945, 35.3173756 ], [ -81.3571266, 35.318633 ], [ -81.3558583, 35.319890799999982 ], [ -81.3531848, 35.3216023 ], [ -81.349254, 35.322506 ], [ -81.3460202, 35.3242153 ], [ -81.3451748, 35.3246712 ], [ -81.3437727, 35.3251247 ], [ -81.3425045, 35.3260382 ], [ -81.341518, 35.3268377 ], [ -81.3402498, 35.3279806 ], [ -81.3392667, 35.3285505 ], [ -81.3368746, 35.329689 ], [ -81.3353282, 35.3302569 ], [ -81.3340668, 35.330481700000014 ], [ -81.3330874, 35.3302485 ], [ -81.3325278, 35.329787200000013 ], [ -81.331834, 35.3286369 ], [ -81.3317005, 35.3276038 ], [ -81.3318488, 35.3262274 ], [ -81.3326982, 35.3248536 ], [ -81.3338291, 35.3232513 ], [ -81.3365032, 35.3210814 ], [ -81.3384725, 35.3199412 ], [ -81.3401561, 35.319832900000016 ], [ -81.3408571, 35.3201797 ], [ -81.3411353, 35.3204102 ], [ -81.3414134, 35.3207554 ], [ -81.3416915, 35.321101 ], [ -81.34197, 35.3214461 ], [ -81.342389, 35.3215624 ], [ -81.3428117, 35.3214493 ], [ -81.343231, 35.3213362 ], [ -81.3443546, 35.3211107 ], [ -81.3461826, 35.3204291 ], [ -81.3475882, 35.3195162 ], [ -81.3492788, 35.3183751 ], [ -81.3522344, 35.315746599999983 ], [ -81.3547737, 35.3132313 ], [ -81.3557632, 35.3118579 ], [ -81.356612, 35.3101397 ], [ -81.3576052, 35.3080779 ], [ -81.358179, 35.3055553 ], [ -81.3580521, 35.3031451 ], [ -81.357922, 35.3011941 ], [ -81.357930007787274, 35.299785448281625 ] ] ] ] } },
{ "type": "Feature", "properties": { "UnitLabel": "Mc", "Belt": "Inner Piedmont, Chauga Belt, Smith River Allochthon, and Sauratown Mountain", "Belt2": "Inner Piedmont" }, "geometry": { "type": "MultiPolygon", "coordinates": [ [ [ [ -81.3442083688156, 35.415921241612942 ], [ -81.3433654, 35.4158899 ], [ -81.331730942469534, 35.415457073138924 ], [ -81.3314709, 35.4148129 ], [ -81.3311957, 35.4141232 ], [ -81.329937, 35.41343 ], [ -81.3281178, 35.4126196 ], [ -81.3254486, 35.4126094 ], [ -81.3217945, 35.413857299999989 ], [ -81.319250376755946, 35.414991517137828 ], [ -81.3181104, 35.4149489 ], [ -81.300253455553062, 35.414279147137307 ], [ -81.3025732, 35.4125182 ], [ -81.3073798, 35.4066854 ], [ -81.3107778, 35.4018797 ], [ -81.3134745, 35.396727 ], [ -81.3134815, 35.3959237 ], [ -81.3134857, 35.3952351 ], [ -81.3132073, 35.394775 ], [ -81.3129288, 35.3943149 ], [ -81.3119491, 35.3938521 ], [ -81.3109653, 35.3944218 ], [ -81.3099778, 35.39510640000001 ], [ -81.309272299999989, 35.3955625 ], [ -81.3088526, 35.3956756 ], [ -81.3084298, 35.3955591 ], [ -81.3078733, 35.3948684 ], [ -81.307454, 35.3945225 ], [ -81.3064777, 35.39383 ], [ -81.3056389, 35.3934823 ], [ -81.3045101, 35.3945106 ], [ -81.303942, 35.395082099999989 ], [ -81.3035188, 35.3954245 ], [ -81.3028174, 35.3954216 ], [ -81.3016999, 35.394958 ], [ -81.3009986, 35.3944963 ], [ -81.3008614, 35.394036600000014 ], [ -81.3005832, 35.393691399999987 ], [ -81.300026699999989, 35.3928858 ], [ -81.2997483, 35.3926551 ], [ -81.2990504, 35.39242260000001 ], [ -81.2983487, 35.3924199 ], [ -81.2970832, 35.3926443 ], [ -81.2965189, 35.3929862 ], [ -81.2956758, 35.393556300000014 ], [ -81.2951117, 35.3937834 ], [ -81.2942649, 35.3944685 ], [ -81.2927165, 35.3952654 ], [ -81.2914505, 35.395719199999988 ], [ -81.290607799999989, 35.3958303 ], [ -81.2892124, 35.3947917 ], [ -81.2887938, 35.3941015 ], [ -81.2888014, 35.3932982 ], [ -81.2892252, 35.3924968 ], [ -81.2900751, 35.3915824 ], [ -81.2912045, 35.3903247 ], [ -81.2921922, 35.3895257 ], [ -81.2944462, 35.3878139 ], [ -81.2964212, 35.3864449 ], [ -81.298252, 35.3849609 ], [ -81.3013553, 35.3826785 ], [ -81.3045965, 35.3801674 ], [ -81.3068496, 35.378914200000011 ], [ -81.3085386, 35.377888 ], [ -81.3128998, 35.3757255 ], [ -81.319094100000015, 35.3725369 ], [ -81.3227537, 35.3700267 ], [ -81.3244422, 35.3691155 ], [ -81.3255667, 35.3687755 ], [ -81.3262682, 35.3687784 ], [ -81.3266873, 35.3690094 ], [ -81.3273885, 35.3692415 ], [ -81.3278077, 35.3695875 ], [ -81.3279487, 35.369702800000013 ], [ -81.3285054, 35.370164 ], [ -81.3286465, 35.3703938 ], [ -81.329062, 35.3709694 ], [ -81.3293402, 35.3716588 ], [ -81.329615, 35.3724632 ], [ -81.3298824, 35.3745296 ], [ -81.3298786, 35.3753329 ], [ -81.3300155, 35.3761367 ], [ -81.3301529, 35.3765962 ], [ -81.3307135, 35.3764837 ], [ -81.3314151, 35.3762569 ], [ -81.3317006, 35.3757989 ], [ -81.3319862, 35.3749967 ], [ -81.332131, 35.3739644 ], [ -81.3322794, 35.3728175 ], [ -81.3327101, 35.3709833 ], [ -81.3339974, 35.3667426 ], [ -81.3352851, 35.3621574 ], [ -81.3372808, 35.3565424 ], [ -81.3382786, 35.3541362 ], [ -81.339547700000011, 35.3525344 ], [ -81.340537900000015, 35.3515054 ], [ -81.3419474, 35.3501337 ], [ -81.343780099999989, 35.3483047 ], [ -81.3449113, 35.3469317 ], [ -81.3456196, 35.345328 ], [ -81.3464724, 35.343265599999988 ], [ -81.3471917, 35.3403995 ], [ -81.3474844, 35.3378762 ], [ -81.3486261, 35.3345525 ], [ -81.349616, 35.3328348 ], [ -81.350606, 35.3315762 ], [ -81.3520152, 35.330319 ], [ -81.3537063, 35.3288335 ], [ -81.3552528, 35.3276918 ], [ -81.3577887, 35.3254058 ], [ -81.3627201, 35.3209485 ], [ -81.366336861701527, 35.316448496581032 ], [ -81.3651344, 35.3201889 ], [ -81.3636344, 35.3237019 ], [ -81.356685399999989, 35.3306109 ], [ -81.3660264, 35.3361359 ], [ -81.372057400000017, 35.339704900000015 ], [ -81.3828354, 35.3460819 ], [ -81.3881374, 35.3484079 ], [ -81.3989274, 35.353144900000011 ], [ -81.406636570156564, 35.362152746330892 ], [ -81.4051399, 35.361944 ], [ -81.4028981, 35.3614777 ], [ -81.4014954, 35.3610141 ], [ -81.4003747, 35.3607809 ], [ -81.3993947, 35.3605481 ], [ -81.3986933, 35.3604311 ], [ -81.3981329, 35.3604293 ], [ -81.3978511, 35.3604286 ], [ -81.397291, 35.3605412 ], [ -81.3968681, 35.3608841 ], [ -81.3965832, 35.3615718 ], [ -81.3971309, 35.3643276 ], [ -81.3971277, 35.365245599999987 ], [ -81.3969835, 35.3660482 ], [ -81.3962789, 35.3667344 ], [ -81.3948696, 35.3675331 ], [ -81.3934671, 35.3678726 ], [ -81.3895375, 35.3683186 ], [ -81.3884135, 35.3684295 ], [ -81.387853, 35.3684276 ], [ -81.3870107, 35.3685397 ], [ -81.386729, 35.3689975 ], [ -81.3865848, 35.3695708 ], [ -81.3869978, 35.3710639 ], [ -81.3882466, 35.373592799999983 ], [ -81.3886597, 35.375545 ], [ -81.388227, 35.377609 ], [ -81.386810700000012, 35.3797844 ], [ -81.3837131, 35.3824131 ], [ -81.3800517, 35.3850398 ], [ -81.3779372, 35.3867538 ], [ -81.377651899999989, 35.3873268 ], [ -81.3776518, 35.3879003 ], [ -81.3779271, 35.3883604 ], [ -81.3782055, 35.3888203 ], [ -81.3784844, 35.3891655 ], [ -81.378763, 35.3898551 ], [ -81.3784808, 35.3903129 ], [ -81.3769233, 35.3929468 ], [ -81.3715793, 35.3951084 ], [ -81.3689072, 35.3963612 ], [ -81.3666547, 35.3975008 ], [ -81.364402, 35.3987551 ], [ -81.3622865, 35.4004689 ], [ -81.3574917, 35.4049268 ], [ -81.3491733, 35.4120108 ], [ -81.345788, 35.4148668 ], [ -81.3442083688156, 35.415921241612942 ] ] ] ] } },
{ "type": "Feature", "properties": { "UnitLabel": "CZms", "Belt": "Inner Piedmont, Chauga Belt, Smith River Allochthon, and Sauratown Mountain", "Belt2": "Inner Piedmont" }, "geometry": { "type": "MultiPolygon", "coordinates": [ [ [ [ -81.300253455553062, 35.414279147137307 ], [ -81.3000074, 35.4142699 ], [ -81.2897114, 35.4138839 ], [ -81.2690284, 35.4130959 ], [ -81.2516874, 35.4124259 ], [ -81.2412544, 35.4119319 ], [ -81.2409194, 35.4119159 ], [ -81.236679136965023, 35.411338550492168 ], [ -81.2369079, 35.4095936 ], [ -81.2383548, 35.4036332 ], [ -81.2403546, 35.3983641 ], [ -81.2429179, 35.3930974 ], [ -81.2449034, 35.3900081 ], [ -81.250559700000011, 35.3832638 ], [ -81.2549438, 35.3781197 ], [ -81.2602942, 35.3753896 ], [ -81.2672046, 35.370141300000014 ], [ -81.2774884, 35.3635304 ], [ -81.2867869, 35.357143799999989 ], [ -81.2936827, 35.3532709 ], [ -81.301572400000012, 35.347680700000012 ], [ -81.3052348, 35.3449416 ], [ -81.3094617, 35.3414014 ], [ -81.31243, 35.3375119 ], [ -81.314697099999989, 35.3340782 ], [ -81.3163963, 35.3313311 ], [ -81.3188043, 35.32698 ], [ -81.3222061, 35.3207968 ], [ -81.325615, 35.3132364 ], [ -81.3293015, 35.3059068 ], [ -81.332857, 35.2975433 ], [ -81.3338688, 35.292268699999987 ], [ -81.3347437, 35.2861903 ], [ -81.3347658, 35.2822887 ], [ -81.3337984, 35.2801048 ], [ -81.3332388, 35.2796436 ], [ -81.3328196, 35.2795272 ], [ -81.3321191, 35.279639300000014 ], [ -81.3315559, 35.2798668 ], [ -81.3314147, 35.280325100000013 ], [ -81.331270300000014, 35.2808983 ], [ -81.331404, 35.2819317 ], [ -81.3309736, 35.2838808 ], [ -81.3302618, 35.2859435 ], [ -81.329973, 35.2870898 ], [ -81.3295463, 35.288236 ], [ -81.3289827, 35.2889221 ], [ -81.3282748, 35.2898373 ], [ -81.3279966, 35.2897217 ], [ -81.3277185, 35.289491 ], [ -81.3277188, 35.2890321 ], [ -81.3275851, 35.2882282 ], [ -81.3277336, 35.2869665 ], [ -81.3277411, 35.285704300000013 ], [ -81.3274628, 35.2853589 ], [ -81.327040599999989, 35.285472 ], [ -81.3267587, 35.2858153 ], [ -81.3264735, 35.2862732 ], [ -81.326188, 35.2871901 ], [ -81.325331, 35.290285 ], [ -81.3249046, 35.2914309 ], [ -81.3243296, 35.2938385 ], [ -81.3227687, 35.296816 ], [ -81.3210706, 35.2994486 ], [ -81.3190936, 35.3020803 ], [ -81.3195278, 35.299672 ], [ -81.3202592, 35.2945111 ], [ -81.3204115, 35.2923315 ], [ -81.3209975, 35.2885468 ], [ -81.3214507, 35.2828111 ], [ -81.3217512, 35.2793699 ], [ -81.3224709, 35.2761595 ], [ -81.3240429, 35.2708869 ], [ -81.3267182, 35.2634122 ], [ -81.326831757074885, 35.263092230133502 ], [ -81.3298724, 35.2647139 ], [ -81.3315374, 35.265605899999983 ], [ -81.3323224, 35.266025899999988 ], [ -81.3362664, 35.2681339 ], [ -81.3489994, 35.274943899999982 ], [ -81.3524854, 35.2768089 ], [ -81.3535104, 35.2773579 ], [ -81.3559654, 35.2815219 ], [ -81.3562064, 35.2880959 ], [ -81.3551314, 35.2943909 ], [ -81.3560984, 35.2977079 ], [ -81.357930007787274, 35.299785448281625 ], [ -81.357922, 35.3011941 ], [ -81.3580521, 35.3031451 ], [ -81.358179, 35.3055553 ], [ -81.3576052, 35.3080779 ], [ -81.356612, 35.3101397 ], [ -81.3557632, 35.3118579 ], [ -81.3547737, 35.3132313 ], [ -81.3522344, 35.315746599999983 ], [ -81.3492788, 35.3183751 ], [ -81.3475882, 35.3195162 ], [ -81.3461826, 35.3204291 ], [ -81.3443546, 35.3211107 ], [ -81.343231, 35.3213362 ], [ -81.3428117, 35.3214493 ], [ -81.342389, 35.3215624 ], [ -81.34197, 35.3214461 ], [ -81.3416915, 35.321101 ], [ -81.3414134, 35.3207554 ], [ -81.3411353, 35.3204102 ], [ -81.3408571, 35.3201797 ], [ -81.3401561, 35.319832900000016 ], [ -81.3384725, 35.3199412 ], [ -81.3365032, 35.3210814 ], [ -81.3338291, 35.3232513 ], [ -81.3326982, 35.3248536 ], [ -81.3318488, 35.3262274 ], [ -81.3317005, 35.3276038 ], [ -81.331834, 35.3286369 ], [ -81.3325278, 35.329787200000013 ], [ -81.3330874, 35.3302485 ], [ -81.3340668, 35.330481700000014 ], [ -81.3353282, 35.3302569 ], [ -81.3368746, 35.329689 ], [ -81.3392667, 35.3285505 ], [ -81.3402498, 35.3279806 ], [ -81.341518, 35.3268377 ], [ -81.3425045, 35.3260382 ], [ -81.3437727, 35.3251247 ], [ -81.3451748, 35.3246712 ], [ -81.3460202, 35.3242153 ], [ -81.349254, 35.322506 ], [ -81.3531848, 35.3216023 ], [ -81.3558583, 35.319890799999982 ], [ -81.3571266, 35.318633 ], [ -81.3583945, 35.3173756 ], [ -81.359384100000014, 35.3162315 ], [ -81.3598069, 35.3153151 ], [ -81.360803, 35.3130235 ], [ -81.3610918, 35.3111887 ], [ -81.3613873, 35.3087799 ], [ -81.3614049, 35.304993399999987 ], [ -81.361392070017857, 35.304772831017061 ], [ -81.3649284, 35.3112319 ], [ -81.3664744, 35.3142359 ], [ -81.3665894, 35.315662900000014 ], [ -81.366336861701527, 35.316448496581032 ], [ -81.3627201, 35.3209485 ], [ -81.3577887, 35.3254058 ], [ -81.3552528, 35.3276918 ], [ -81.3537063, 35.3288335 ], [ -81.3520152, 35.330319 ], [ -81.350606, 35.3315762 ], [ -81.349616, 35.3328348 ], [ -81.3486261, 35.3345525 ], [ -81.3474844, 35.3378762 ], [ -81.3471917, 35.3403995 ], [ -81.3464724, 35.343265599999988 ], [ -81.3456196, 35.345328 ], [ -81.3449113, 35.3469317 ], [ -81.343780099999989, 35.3483047 ], [ -81.3419474, 35.3501337 ], [ -81.340537900000015, 35.3515054 ], [ -81.339547700000011, 35.3525344 ], [ -81.3382786, 35.3541362 ], [ -81.3372808, 35.3565424 ], [ -81.3352851, 35.3621574 ], [ -81.3339974, 35.3667426 ], [ -81.3327101, 35.3709833 ], [ -81.3322794, 35.3728175 ], [ -81.332131, 35.3739644 ], [ -81.3319862, 35.3749967 ], [ -81.3317006, 35.3757989 ], [ -81.3314151, 35.3762569 ], [ -81.3307135, 35.3764837 ], [ -81.3301529, 35.3765962 ], [ -81.3300155, 35.3761367 ], [ -81.3298786, 35.3753329 ], [ -81.3298824, 35.3745296 ], [ -81.329615, 35.3724632 ], [ -81.3293402, 35.3716588 ], [ -81.329062, 35.3709694 ], [ -81.3286465, 35.3703938 ], [ -81.3285054, 35.370164 ], [ -81.3279487, 35.369702800000013 ], [ -81.3278077, 35.3695875 ], [ -81.3273885, 35.3692415 ], [ -81.3266873, 35.3690094 ], [ -81.3262682, 35.3687784 ], [ -81.3255667, 35.3687755 ], [ -81.3244422, 35.3691155 ], [ -81.3227537, 35.3700267 ], [ -81.319094100000015, 35.3725369 ], [ -81.3128998, 35.3757255 ], [ -81.3085386, 35.377888 ], [ -81.3068496, 35.378914200000011 ], [ -81.3045965, 35.3801674 ], [ -81.3013553, 35.3826785 ], [ -81.298252, 35.3849609 ], [ -81.2964212, 35.3864449 ], [ -81.2944462, 35.3878139 ], [ -81.2921922, 35.3895257 ], [ -81.2912045, 35.3903247 ], [ -81.2900751, 35.3915824 ], [ -81.2892252, 35.3924968 ], [ -81.2888014, 35.3932982 ], [ -81.2887938, 35.3941015 ], [ -81.2892124, 35.3947917 ], [ -81.290607799999989, 35.3958303 ], [ -81.2914505, 35.395719199999988 ], [ -81.2927165, 35.3952654 ], [ -81.2942649, 35.3944685 ], [ -81.2951117, 35.3937834 ], [ -81.2956758, 35.393556300000014 ], [ -81.2965189, 35.3929862 ], [ -81.2970832, 35.3926443 ], [ -81.2983487, 35.3924199 ], [ -81.2990504, 35.39242260000001 ], [ -81.2997483, 35.3926551 ], [ -81.300026699999989, 35.3928858 ], [ -81.3005832, 35.393691399999987 ], [ -81.3008614, 35.394036600000014 ], [ -81.3009986, 35.3944963 ], [ -81.3016999, 35.394958 ], [ -81.3028174, 35.3954216 ], [ -81.3035188, 35.3954245 ], [ -81.303942, 35.395082099999989 ], [ -81.3045101, 35.3945106 ], [ -81.3056389, 35.3934823 ], [ -81.3064777, 35.39383 ], [ -81.307454, 35.3945225 ], [ -81.3078733, 35.3948684 ], [ -81.3084298, 35.3955591 ], [ -81.3088526, 35.3956756 ], [ -81.309272299999989, 35.3955625 ], [ -81.3099778, 35.39510640000001 ], [ -81.3109653, 35.3944218 ], [ -81.3119491, 35.3938521 ], [ -81.3129288, 35.3943149 ], [ -81.3132073, 35.394775 ], [ -81.3134857, 35.3952351 ], [ -81.3134815, 35.3959237 ], [ -81.3134745, 35.396727 ], [ -81.3107778, 35.4018797 ], [ -81.3073798, 35.4066854 ], [ -81.3025732, 35.4125182 ], [ -81.300253455553062, 35.414279147137307 ] ] ] ] } },
{ "type": "Feature", "properties": { "UnitLabel": "CZg", "Belt": "Charlotte and Milton Belts", "Belt2": "Charlotte Belt" }, "geometry": { "type": "MultiPolygon", "coordinates": [ [ [ [ -81.128053950887292, 35.154966804639642 ], [ -81.129811500000017, 35.1550458 ], [ -81.1382103, 35.1554239 ], [ -81.1805619, 35.1573319 ], [ -81.1807259, 35.1573392 ], [ -81.192999955281167, 35.157893030604484 ], [ -81.1915049, 35.1587567 ], [ -81.185744, 35.161941 ], [ -81.182650099999989, 35.1638761 ], [ -81.1801188, 35.1655846 ], [ -81.1728105, 35.1700227 ], [ -81.1704162, 35.1717316 ], [ -81.1678848, 35.173325 ], [ -81.1652114, 35.175376700000015 ], [ -81.1636613, 35.1766311 ], [ -81.162393, 35.1777719 ], [ -81.1611187, 35.1798308 ], [ -81.1585662, 35.1840633 ], [ -81.156297, 35.1876086 ], [ -81.1540362, 35.1903509 ], [ -81.1493885, 35.1939983 ], [ -81.1460104, 35.1961605 ], [ -81.1406671, 35.199229900000013 ], [ -81.1351834, 35.2021838 ], [ -81.1278752, 35.205815799999982 ], [ -81.1233686, 35.2086596 ], [ -81.1198513, 35.2110499 ], [ -81.1127876, 35.2183543 ], [ -81.1082669, 35.2230337 ], [ -81.1068501, 35.2250911 ], [ -81.1062758, 35.226465 ], [ -81.1047125, 35.2292101 ], [ -81.1042829, 35.2304698 ], [ -81.101433899999989, 35.2358471 ], [ -81.0995873, 35.2389348 ], [ -81.0976004, 35.2419068 ], [ -81.0957655, 35.2435027 ], [ -81.0949235, 35.243842099999988 ], [ -81.0943639, 35.2438388 ], [ -81.0933831, 35.2436034 ], [ -81.0925514, 35.2427955 ], [ -81.0922808, 35.2416466 ], [ -81.0914736, 35.2377403 ], [ -81.0909686, 35.23177 ], [ -81.0908666, 35.2274088 ], [ -81.0914537, 35.2243137 ], [ -81.0924527, 35.2221394 ], [ -81.0944352, 35.2193968 ], [ -81.095993299999989, 35.2173402 ], [ -81.0995262, 35.2135738 ], [ -81.1030584, 35.2100368 ], [ -81.1061725, 35.2061529 ], [ -81.1104159, 35.201013 ], [ -81.1175019, 35.1904957 ], [ -81.1213414, 35.1832877 ], [ -81.1249143, 35.174471300000015 ], [ -81.1266379, 35.1692023 ], [ -81.1278239, 35.161176 ], [ -81.128053950887292, 35.154966804639642 ] ] ] ] } },
{ "type": "Feature", "properties": { "UnitLabel": "PPmg", "Belt": "Kings Mountain Belt", "Belt2": "Kings Mountain Belt" }, "geometry": { "type": "MultiPolygon", "coordinates": [ [ [ [ -81.197657254982857, 35.410266531538205 ], [ -81.1624183, 35.4090379 ], [ -81.13572625486556, 35.408101321086882 ], [ -81.1356507, 35.4010505 ], [ -81.1347035, 35.3966849 ], [ -81.132914, 35.3923147 ], [ -81.130297, 35.3863334 ], [ -81.1269772, 35.3809218 ], [ -81.1233838, 35.3741317 ], [ -81.120065, 35.3687199 ], [ -81.1179932, 35.3649215 ], [ -81.1171732, 35.3621628 ], [ -81.115536, 35.3568751 ], [ -81.1151399, 35.3537748 ], [ -81.1144751, 35.3497546 ], [ -81.1138233, 35.343784 ], [ -81.1130567, 35.335058799999985 ], [ -81.1121483, 35.3265619 ], [ -81.1117908, 35.3189865 ], [ -81.1122352, 35.316349699999989 ], [ -81.1125283, 35.3148594 ], [ -81.113804800000011, 35.3131454 ], [ -81.1150719, 35.3123493 ], [ -81.116761, 35.3115556 ], [ -81.1180262, 35.3112185 ], [ -81.1191463, 35.311224800000012 ], [ -81.120265, 35.31169 ], [ -81.1209607, 35.3122676 ], [ -81.1215105, 35.3133034 ], [ -81.1224765, 35.31537440000001 ], [ -81.1241139, 35.3205473 ], [ -81.1246633, 35.3218126 ], [ -81.1257827, 35.3220484 ], [ -81.126346700000013, 35.3219366 ], [ -81.1274763, 35.321025 ], [ -81.128187200000013, 35.3198814 ], [ -81.1287682, 35.3174749 ], [ -81.128786, 35.3149505 ], [ -81.1290831, 35.313116 ], [ -81.1295123, 35.3120856 ], [ -81.1309198, 35.3112901 ], [ -81.1323254, 35.3110683 ], [ -81.1330226, 35.3111869 ], [ -81.1338632, 35.3115357 ], [ -81.1345586, 35.3122281 ], [ -81.1352496, 35.313264700000012 ], [ -81.1362168, 35.315105699999989 ], [ -81.1377245, 35.3190157 ], [ -81.1388225, 35.3220052 ], [ -81.1394917, 35.325910400000012 ], [ -81.1398886, 35.3290109 ], [ -81.1397279, 35.3313049 ], [ -81.1394296, 35.3334834 ], [ -81.138844, 35.3364639 ], [ -81.1381265, 35.3386403 ], [ -81.1365527, 35.342189 ], [ -81.1355472, 35.3452816 ], [ -81.1329825, 35.3503168 ], [ -81.1322655, 35.352263399999984 ], [ -81.1318159, 35.3555887 ], [ -81.131785400000012, 35.3590313 ], [ -81.1323033, 35.3643125 ], [ -81.13313, 35.3661531 ], [ -81.1338297, 35.3666158 ], [ -81.1345313, 35.3665049 ], [ -81.1350965, 35.3660489 ], [ -81.1356619, 35.365478200000013 ], [ -81.1359498, 35.3645617 ], [ -81.1359555, 35.3637587 ], [ -81.1359664, 35.3623817 ], [ -81.1359872, 35.3598574 ], [ -81.1364315, 35.3571057 ], [ -81.1378659, 35.3530972 ], [ -81.1390168, 35.3496611 ], [ -81.1422873, 35.3440559 ], [ -81.1439864, 35.3422291 ], [ -81.1446878, 35.3421183 ], [ -81.1453887, 35.342236799999988 ], [ -81.1458074, 35.3424685 ], [ -81.1458066, 35.342698 ], [ -81.14608, 35.3432733 ], [ -81.1460743, 35.3441911 ], [ -81.1460644, 35.3453387 ], [ -81.1459173, 35.3462559 ], [ -81.1459125, 35.3468296 ], [ -81.1459013, 35.3483212 ], [ -81.1460324, 35.349469499999984 ], [ -81.1460133, 35.3515348 ], [ -81.1460069, 35.3525676 ], [ -81.1462747, 35.353946 ], [ -81.1464049, 35.3554385 ], [ -81.1465317, 35.3568162 ], [ -81.1467992, 35.3583095 ], [ -81.1469286, 35.36003130000001 ], [ -81.1470455, 35.3625563 ], [ -81.146888, 35.3648507 ], [ -81.1462929, 35.3688637 ], [ -81.1452611, 35.3752841 ], [ -81.1439172, 35.38526 ], [ -81.1435989, 35.3897336 ], [ -81.143871600000011, 35.3906531 ], [ -81.1441491, 35.3909988 ], [ -81.1447089, 35.3912314 ], [ -81.1454106, 35.391235 ], [ -81.1456929, 35.3911219 ], [ -81.1461163, 35.3908944 ], [ -81.146682, 35.390324 ], [ -81.1471063, 35.3897524 ], [ -81.1473933, 35.3891801 ], [ -81.1478171, 35.3888381 ], [ -81.1483777, 35.3889558 ], [ -81.1487964, 35.3891878 ], [ -81.1489335, 35.3894178 ], [ -81.1492111, 35.3897637 ], [ -81.1496297, 35.3901103 ], [ -81.1501895, 35.3903427 ], [ -81.1508912, 35.3902316 ], [ -81.1514561, 35.390005099999989 ], [ -81.1524409, 35.3894367 ], [ -81.1535755, 35.3881803 ], [ -81.1547116, 35.3863505 ], [ -81.156711, 35.381771 ], [ -81.1592991, 35.3740967 ], [ -81.1601675, 35.3706587 ], [ -81.161177100000018, 35.366992 ], [ -81.1619277, 35.3610289 ], [ -81.162958, 35.3546082 ], [ -81.1638494, 35.3486458 ], [ -81.1638956, 35.3424496 ], [ -81.1635172, 35.3370544 ], [ -81.1622908, 35.3328022 ], [ -81.1607879, 35.3277455 ], [ -81.1570863, 35.3173984 ], [ -81.1546416, 35.3075168 ], [ -81.151925, 35.2967159 ], [ -81.1507778, 35.2824803 ], [ -81.150566500000011, 35.2739877 ], [ -81.151041100000015, 35.2672198 ], [ -81.1516519, 35.2609116 ], [ -81.1528262, 35.2542623 ], [ -81.1544292, 35.2464676 ], [ -81.1562838, 35.2421169 ], [ -81.1588488, 35.2363927 ], [ -81.1604205, 35.2324994 ], [ -81.1621422, 35.2274592 ], [ -81.16599, 35.2188728 ], [ -81.1688395, 35.2125762 ], [ -81.172096700000012, 35.2078882 ], [ -81.1771909, 35.2009143 ], [ -81.1797335, 35.197828899999983 ], [ -81.1814302, 35.1954275 ], [ -81.1835533, 35.1925695 ], [ -81.1849634, 35.1908554 ], [ -81.1870903, 35.1876528 ], [ -81.1889329, 35.1843343 ], [ -81.1902099, 35.182274899999982 ], [ -81.1920419, 35.1804482 ], [ -81.1933103, 35.179192199999989 ], [ -81.1944378, 35.1780503 ], [ -81.1954236, 35.1772517 ], [ -81.1961279, 35.1767964 ], [ -81.1964097, 35.1764534 ], [ -81.1968322, 35.1761113 ], [ -81.1973916, 35.1759994 ], [ -81.1978135, 35.176001299999989 ], [ -81.198091100000013, 35.1760029 ], [ -81.1983726, 35.176004299999988 ], [ -81.1989266, 35.1766954 ], [ -81.1990629, 35.1771553 ], [ -81.1994807, 35.1775015 ], [ -81.1996211, 35.1776168 ], [ -81.1998991, 35.1775036 ], [ -81.2003216, 35.1772761 ], [ -81.2004626, 35.1770473 ], [ -81.2010299, 35.1763614 ], [ -81.2013079, 35.1762481 ], [ -81.2018702, 35.1763657 ], [ -81.2020068, 35.1765959 ], [ -81.202283799999989, 35.1770562 ], [ -81.2019977, 35.1778582 ], [ -81.2010028, 35.1796894 ], [ -81.1994474, 35.1820916 ], [ -81.1993015, 35.1830089 ], [ -81.1998566, 35.1833559 ], [ -81.2005552, 35.1838183 ], [ -81.2011147, 35.1835915 ], [ -81.2022378, 35.1830232 ], [ -81.2026593, 35.1830254 ], [ -81.2029367, 35.183370800000013 ], [ -81.2033504, 35.1839469 ], [ -81.2040497, 35.1842945 ], [ -81.2051677, 35.1844147 ], [ -81.2067123, 35.1838483 ], [ -81.2072756, 35.1833922 ], [ -81.2098158, 35.180535599999985 ], [ -81.2123565, 35.1774494 ], [ -81.2143336, 35.1748195 ], [ -81.2151822, 35.1739057 ], [ -81.2161686, 35.1728777 ], [ -81.2170097, 35.1723079 ], [ -81.218273, 35.171855 ], [ -81.2199536, 35.1717481 ], [ -81.2216337, 35.1718709 ], [ -81.223583499999989, 35.1727983 ], [ -81.2259544, 35.174301099999987 ], [ -81.2270717, 35.1746508 ], [ -81.2281902, 35.1744266 ], [ -81.2284722, 35.1740837 ], [ -81.2290392, 35.1733975 ], [ -81.2291845, 35.1727098 ], [ -81.229044, 35.17247960000001 ], [ -81.2279303, 35.1719007 ], [ -81.2273761, 35.1712094 ], [ -81.2270995, 35.1705196 ], [ -81.2269628, 35.1701746 ], [ -81.2269636, 35.1697158 ], [ -81.2271086, 35.1691427 ], [ -81.2273939, 35.1686849 ], [ -81.2283756, 35.1682305 ], [ -81.2306155, 35.1678966 ], [ -81.2343904, 35.1686028 ], [ -81.2371802, 35.1697634 ], [ -81.2399653, 35.1716122 ], [ -81.2452502, 35.176571 ], [ -81.2535647, 35.188657700000014 ], [ -81.2568718, 35.196476 ], [ -81.2596078, 35.2058982 ], [ -81.259847, 35.2119811 ], [ -81.2602184, 35.219327100000015 ], [ -81.259177, 35.2285029 ], [ -81.2579863, 35.2389404 ], [ -81.2565048, 35.250983 ], [ -81.254304600000012, 35.2655466 ], [ -81.2525519, 35.27644020000001 ], [ -81.251838400000011, 35.2782729 ], [ -81.2504078, 35.2822829 ], [ -81.248121, 35.2890428 ], [ -81.2458304, 35.2958029 ], [ -81.2439578, 35.3031382 ], [ -81.2422252, 35.3105891 ], [ -81.2395007, 35.319412299999989 ], [ -81.2373535, 35.3258286 ], [ -81.2349246, 35.332128499999989 ], [ -81.2324936, 35.3392317 ], [ -81.2286343, 35.3491969 ], [ -81.2269267, 35.3529756 ], [ -81.2249373, 35.3562939 ], [ -81.2223876, 35.3598392 ], [ -81.2196962, 35.3634983 ], [ -81.215442, 35.3700186 ], [ -81.2141531, 35.3735696 ], [ -81.2112961, 35.3806704 ], [ -81.2105764, 35.382962100000015 ], [ -81.2097194, 35.3852529 ], [ -81.2090083, 35.3865114 ], [ -81.2077373, 35.3876529 ], [ -81.2068899, 35.3884521 ], [ -81.2061832, 35.389251799999982 ], [ -81.2053266, 35.3911985 ], [ -81.2028932, 35.3974977 ], [ -81.201602900000012, 35.4011633 ], [ -81.2004584, 35.4040265 ], [ -81.197891, 35.409751 ], [ -81.197657254982857, 35.410266531538205 ] ] ] ] } },
{ "type": "Feature", "properties": { "UnitLabel": "CZbg", "Belt": "Inner Piedmont, Chauga Belt, Smith River Allochthon, and Sauratown Mountain", "Belt2": "Inner Piedmont" }, "geometry": { "type": "MultiPolygon", "coordinates": [ [ [ [ -81.441676009334529, 35.419321695714864 ], [ -81.423528641687838, 35.418698072719202 ], [ -81.4232964, 35.417149 ], [ -81.4237115, 35.4150818 ], [ -81.4241259, 35.4124407 ], [ -81.4246784, 35.4097994 ], [ -81.4256446, 35.4034835 ], [ -81.4268926, 35.3967081 ], [ -81.4288381, 35.390046 ], [ -81.4294279, 35.3888936 ], [ -81.429478897514812, 35.388793794873457 ], [ -81.444075370006857, 35.405800864327716 ], [ -81.4439665, 35.4062699 ], [ -81.4436068, 35.4078146 ], [ -81.4424962, 35.4125234 ], [ -81.4416673, 35.4168876 ], [ -81.441676009334529, 35.419321695714864 ] ] ], [ [ [ -81.4553264, 35.418903899999989 ], [ -81.4556034, 35.4198179 ], [ -81.4541844, 35.4197629 ], [ -81.4513464, 35.4196529 ], [ -81.446814161436677, 35.419497770240149 ], [ -81.4470039, 35.4192888 ], [ -81.4486813, 35.4176783 ], [ -81.4503614, 35.4156088 ], [ -81.4510987, 35.4147884 ], [ -81.45145209212005, 35.414392450168663 ], [ -81.4553264, 35.418903899999989 ] ] ] ] } },
{ "type": "Feature", "properties": { "UnitLabel": "CZab", "Belt": "Inner Piedmont, Chauga Belt, Smith River Allochthon, and Sauratown Mountain", "Belt2": "Inner Piedmont" }, "geometry": { "type": "MultiPolygon", "coordinates": [ [ [ [ -81.331730942469534, 35.415457073138924 ], [ -81.3195014, 35.4150009 ], [ -81.319250376755946, 35.414991517137828 ], [ -81.3217945, 35.413857299999989 ], [ -81.3254486, 35.4126094 ], [ -81.3281178, 35.4126196 ], [ -81.329937, 35.41343 ], [ -81.3311957, 35.4141232 ], [ -81.3314709, 35.4148129 ], [ -81.331730942469534, 35.415457073138924 ] ] ] ] } },
{ "type": "Feature", "properties": { "UnitLabel": "CZg", "Belt": "Charlotte and Milton Belts", "Belt2": "Charlotte Belt" }, "geometry": { "type": "MultiPolygon", "coordinates": [ [ [ [ -81.097642026514364, 35.153369812343001 ], [ -81.1092983, 35.1541219 ], [ -81.1108433, 35.1541919 ], [ -81.120280390938106, 35.154617105526263 ], [ -81.1174825, 35.1597414 ], [ -81.1135188, 35.1651126 ], [ -81.1068754, 35.1728782 ], [ -81.0988135, 35.1829304 ], [ -81.0971157, 35.1849862 ], [ -81.0910441, 35.1911478 ], [ -81.0827252, 35.1980988 ], [ -81.0798984, 35.2009511 ], [ -81.0777817, 35.2028891 ], [ -81.07881, 35.1972725 ], [ -81.0792668, 35.1932587 ], [ -81.080147599999989, 35.1886738 ], [ -81.0807337, 35.185808400000013 ], [ -81.0814498, 35.1840912 ], [ -81.0817341, 35.1832896 ], [ -81.0824443, 35.182261 ], [ -81.083291, 35.1813482 ], [ -81.0844194, 35.180436600000014 ], [ -81.0858287, 35.179527 ], [ -81.087939800000015, 35.1780475 ], [ -81.0897784, 35.1759927 ], [ -81.0917641, 35.1729059 ], [ -81.0936091, 35.169933 ], [ -81.095323, 35.166041199999988 ], [ -81.0954881, 35.1628292 ], [ -81.0960791, 35.1593898 ], [ -81.097642026514364, 35.153369812343001 ] ] ] ] } },
{ "type": "Feature", "properties": { "UnitLabel": "DOg", "Belt": "Charlotte and Milton Belts", "Belt2": "Charlotte Belt" }, "geometry": { "type": "MultiPolygon", "coordinates": [ [ [ [ -81.00969138791659, 35.403274214705313 ], [ -80.988026763188827, 35.402099046633538 ], [ -80.9884013, 35.3909772 ], [ -80.9891866, 35.382491 ], [ -80.9895327, 35.3760672 ], [ -80.9898538, 35.3720531 ], [ -80.9897583, 35.3674625 ], [ -80.9896416, 35.365166800000011 ], [ -80.9888244, 35.3627514 ], [ -80.9882821, 35.361026699999982 ], [ -80.9871704, 35.3598716 ], [ -80.9862045, 35.3583735 ], [ -80.9850973, 35.3569892 ], [ -80.9834256, 35.3557156 ], [ -80.9818935, 35.3547873 ], [ -80.9797973, 35.3539698 ], [ -80.9789628, 35.3530463 ], [ -80.980933, 35.344822 ], [ -80.980210900000017, 35.3439643 ], [ -80.979507, 35.3432868 ], [ -80.97944570336972, 35.34322803329124 ], [ -80.9814743, 35.3426599 ], [ -80.9834843, 35.3416089 ], [ -80.9848973, 35.3400659 ], [ -80.9853053, 35.3372239 ], [ -80.9846703, 35.3363469 ], [ -80.9829973, 35.3350849 ], [ -80.9818083, 35.333174899999982 ], [ -80.9808073, 35.3297969 ], [ -80.9816903, 35.3272229 ], [ -80.9826583, 35.3258309 ], [ -80.9836253, 35.3248179 ], [ -80.9857513, 35.3229299 ], [ -80.9891863, 35.3207129 ], [ -80.9921503, 35.3163609 ], [ -80.9933683, 35.3132509 ], [ -80.995285097401307, 35.309675162820412 ], [ -80.9997377, 35.308776 ], [ -81.0057807, 35.3072091 ], [ -81.0111154, 35.3065554 ], [ -81.0135001, 35.306456 ], [ -81.014479100000017, 35.3064624 ], [ -81.015457, 35.3066983 ], [ -81.0162972, 35.307048 ], [ -81.0171288, 35.3078566 ], [ -81.0180941, 35.3094692 ], [ -81.0184925, 35.3118816 ], [ -81.0185979, 35.3153247 ], [ -81.0182902, 35.3181917 ], [ -81.0175584, 35.321399899999989 ], [ -81.0173985, 35.3234645 ], [ -81.0175205, 35.325416100000012 ], [ -81.0180626, 35.3272554 ], [ -81.0191637, 35.3293281 ], [ -81.0217998, 35.3324432 ], [ -81.0238848, 35.3342926 ], [ -81.024856, 35.3354463 ], [ -81.025680799999989, 35.337058 ], [ -81.0260881, 35.3383229 ], [ -81.0259327, 35.340158 ], [ -81.0250608, 35.343136 ], [ -81.0234872, 35.346339 ], [ -81.0214998, 35.3489655 ], [ -81.0197974, 35.3507907 ], [ -81.0188006, 35.3523908 ], [ -81.0185051, 35.3539954 ], [ -81.0184933, 35.3551429 ], [ -81.0189098, 35.3558339 ], [ -81.0198832, 35.3565287 ], [ -81.0239483, 35.3567843 ], [ -81.0271882, 35.3555425 ], [ -81.0323996, 35.3529364 ], [ -81.0357755, 35.3520397 ], [ -81.0373197, 35.3518198 ], [ -81.0385856, 35.3515981 ], [ -81.039286, 35.3517172 ], [ -81.0404, 35.3525275 ], [ -81.0409483, 35.3537934 ], [ -81.0412072, 35.3560899 ], [ -81.0397581, 35.3609003 ], [ -81.0371862, 35.3661627 ], [ -81.0343506, 35.3693579 ], [ -81.032071, 35.3727861 ], [ -81.0307788, 35.3759908 ], [ -81.0309085, 35.3770244 ], [ -81.0316033, 35.3778321 ], [ -81.0327178, 35.3785277 ], [ -81.0342563, 35.3789963 ], [ -81.0362191, 35.3791236 ], [ -81.0394653, 35.3773078 ], [ -81.0419994, 35.376405700000014 ], [ -81.0425599, 35.3764092 ], [ -81.0432569, 35.3766431 ], [ -81.043533, 35.377333 ], [ -81.0433746, 35.3790536 ], [ -81.0410791, 35.3847765 ], [ -81.0379497, 35.3891175 ], [ -81.0328441, 35.3947082 ], [ -81.0302966, 35.3969871 ], [ -81.0290277, 35.3977823 ], [ -81.0280433, 35.3980055 ], [ -81.0263579, 35.397995 ], [ -81.0231438, 35.3968267 ], [ -81.0204806, 35.3963508 ], [ -81.0185174, 35.3962234 ], [ -81.0165531, 35.3963256 ], [ -81.0142962, 35.3973436 ], [ -81.012738, 35.3989401 ], [ -81.0100357, 35.4027092 ], [ -81.00969138791659, 35.403274214705313 ] ] ] ] } },
{ "type": "Feature", "properties": { "UnitLabel": "PzZq", "Belt": "Charlotte and Milton Belts", "Belt2": "Charlotte Belt" }, "geometry": { "type": "MultiPolygon", "coordinates": [ [ [ [ -81.074712088506629, 35.405960062248035 ], [ -81.0546173, 35.4052549 ], [ -81.0306783, 35.4044089 ], [ -81.00969138791659, 35.403274214705313 ], [ -81.0100357, 35.4027092 ], [ -81.012738, 35.3989401 ], [ -81.0142962, 35.3973436 ], [ -81.0165531, 35.3963256 ], [ -81.0185174, 35.3962234 ], [ -81.0204806, 35.3963508 ], [ -81.0231438, 35.3968267 ], [ -81.0263579, 35.397995 ], [ -81.0280433, 35.3980055 ], [ -81.0290277, 35.3977823 ], [ -81.0302966, 35.3969871 ], [ -81.0328441, 35.3947082 ], [ -81.0379497, 35.3891175 ], [ -81.0410791, 35.3847765 ], [ -81.0433746, 35.3790536 ], [ -81.043533, 35.377333 ], [ -81.0432569, 35.3766431 ], [ -81.0425599, 35.3764092 ], [ -81.0419994, 35.376405700000014 ], [ -81.0394653, 35.3773078 ], [ -81.0362191, 35.3791236 ], [ -81.0342563, 35.3789963 ], [ -81.0327178, 35.3785277 ], [ -81.0316033, 35.3778321 ], [ -81.0309085, 35.3770244 ], [ -81.0307788, 35.3759908 ], [ -81.032071, 35.3727861 ], [ -81.0343506, 35.3693579 ], [ -81.0371862, 35.3661627 ], [ -81.0397581, 35.3609003 ], [ -81.0412072, 35.3560899 ], [ -81.0409483, 35.3537934 ], [ -81.0404, 35.3525275 ], [ -81.039286, 35.3517172 ], [ -81.0385856, 35.3515981 ], [ -81.0373197, 35.3518198 ], [ -81.0357755, 35.3520397 ], [ -81.0323996, 35.3529364 ], [ -81.0271882, 35.3555425 ], [ -81.0239483, 35.3567843 ], [ -81.0198832, 35.3565287 ], [ -81.0189098, 35.3558339 ], [ -81.0184933, 35.3551429 ], [ -81.0185051, 35.3539954 ], [ -81.0188006, 35.3523908 ], [ -81.0197974, 35.3507907 ], [ -81.0214998, 35.3489655 ], [ -81.0234872, 35.346339 ], [ -81.0250608, 35.343136 ], [ -81.0259327, 35.340158 ], [ -81.0260881, 35.3383229 ], [ -81.025680799999989, 35.337058 ], [ -81.024856, 35.3354463 ], [ -81.0238848, 35.3342926 ], [ -81.0217998, 35.3324432 ], [ -81.0191637, 35.3293281 ], [ -81.0180626, 35.3272554 ], [ -81.0175205, 35.325416100000012 ], [ -81.0173985, 35.3234645 ], [ -81.0175584, 35.321399899999989 ], [ -81.0182902, 35.3181917 ], [ -81.0185979, 35.3153247 ], [ -81.0184925, 35.3118816 ], [ -81.0180941, 35.3094692 ], [ -81.0171288, 35.3078566 ], [ -81.0162972, 35.307048 ], [ -81.015457, 35.3066983 ], [ -81.014479100000017, 35.3064624 ], [ -81.0135001, 35.306456 ], [ -81.0111154, 35.3065554 ], [ -81.0057807, 35.3072091 ], [ -80.9997377, 35.308776 ], [ -80.995285097401307, 35.309675162820412 ], [ -80.9953903, 35.309478899999988 ], [ -81.000876300000016, 35.3053859 ], [ -81.0018313, 35.3012419 ], [ -81.0038573, 35.2979359 ], [ -81.0042073, 35.2967209 ], [ -81.0070623, 35.2895799 ], [ -81.0079443, 35.2841709 ], [ -81.0093353, 35.2803739 ], [ -81.0110333, 35.2782509 ], [ -81.0130053, 35.2746639 ], [ -81.0148993, 35.2697969 ], [ -81.0150533, 35.2686619 ], [ -81.0141143, 35.2585199 ], [ -81.0138283, 35.2576919 ], [ -81.0112093, 35.2523069 ], [ -81.0088713, 35.250712899999989 ], [ -81.0083043, 35.2487549 ], [ -81.0082713, 35.2480629 ], [ -81.0091453, 35.2457789 ], [ -81.0102103, 35.2432049 ], [ -81.0108183, 35.2359709 ], [ -81.0124623, 35.231480900000015 ], [ -81.0139463, 35.2257839 ], [ -81.0142693, 35.2243469 ], [ -81.0141303, 35.2219669 ], [ -81.0138223, 35.2212299 ], [ -81.0098343, 35.2142749 ], [ -81.0073243, 35.2118059 ], [ -81.0062983, 35.2102919 ], [ -81.0052713, 35.2076929 ], [ -81.0062763, 35.1983559 ], [ -81.0061433, 35.1950889 ], [ -81.0039033, 35.1870399 ], [ -81.0029703, 35.1847709 ], [ -81.0023903, 35.1808239 ], [ -81.0034153, 35.1719579 ], [ -81.0039183, 35.1704139 ], [ -81.0073093, 35.1651819 ], [ -81.0071913, 35.1646599 ], [ -81.0058393, 35.1608839 ], [ -81.0058093, 35.1570299 ], [ -81.0074703, 35.1545129 ], [ -81.0095133, 35.153132899999989 ], [ -81.0121033, 35.1527829 ], [ -81.0171153, 35.1543249 ], [ -81.0203693, 35.1513959 ], [ -81.0247243, 35.148883900000016 ], [ -81.0313743, 35.148449899999989 ], [ -81.0331983, 35.1486919 ], [ -81.042064603536886, 35.14920787072311 ], [ -81.041441, 35.1497561 ], [ -81.0403163, 35.1501516 ], [ -81.065688760528317, 35.15130787804047 ], [ -81.0772563, 35.1520539 ], [ -81.0927877, 35.1530563 ], [ -81.0930312, 35.153072 ], [ -81.097642026514364, 35.153369812343001 ], [ -81.0960791, 35.1593898 ], [ -81.0954881, 35.1628292 ], [ -81.095323, 35.166041199999988 ], [ -81.0936091, 35.169933 ], [ -81.0917641, 35.1729059 ], [ -81.0897784, 35.1759927 ], [ -81.087939800000015, 35.1780475 ], [ -81.0858287, 35.179527 ], [ -81.0844194, 35.180436600000014 ], [ -81.083291, 35.1813482 ], [ -81.0824443, 35.182261 ], [ -81.0817341, 35.1832896 ], [ -81.0814498, 35.1840912 ], [ -81.0807337, 35.185808400000013 ], [ -81.080147599999989, 35.1886738 ], [ -81.0792668, 35.1932587 ], [ -81.07881, 35.1972725 ], [ -81.0777817, 35.2028891 ], [ -81.0761894, 35.2087321 ], [ -81.0747097, 35.2175593 ], [ -81.0727825, 35.2295969 ], [ -81.0722964, 35.2368235 ], [ -81.0724022, 35.2407256 ], [ -81.0722288, 35.2441674 ], [ -81.0717814, 35.2472629 ], [ -81.0703454, 35.2513856 ], [ -81.0693402, 35.2540185 ], [ -81.0681885, 35.2572249 ], [ -81.0675996, 35.2605491 ], [ -81.0674347, 35.2634168 ], [ -81.0678415, 35.2647965 ], [ -81.0632102, 35.2655715 ], [ -81.0588553, 35.2668074 ], [ -81.0550566, 35.2688499 ], [ -81.0530804, 35.2702147 ], [ -81.0508191, 35.2724958 ], [ -81.0488365, 35.2745491 ], [ -81.0462871, 35.2775171 ], [ -81.0441731, 35.2788807 ], [ -81.0422006, 35.2801308 ], [ -81.0372794, 35.2818214 ], [ -81.0339045, 35.2831771 ], [ -81.0306674, 35.2845337 ], [ -81.0286953, 35.285554 ], [ -81.027429, 35.2861197 ], [ -81.0265817, 35.2866881 ], [ -81.0255966, 35.2873701 ], [ -81.0246067, 35.2883966 ], [ -81.0240308, 35.28977 ], [ -81.0240172, 35.2913764 ], [ -81.0244233, 35.2927559 ], [ -81.0259472, 35.2947166 ], [ -81.0273383, 35.2955287 ], [ -81.0287372, 35.2961115 ], [ -81.0304159, 35.2963516 ], [ -81.0327954, 35.2965958 ], [ -81.0395367, 35.2952613 ], [ -81.0429127, 35.2936761 ], [ -81.0451674, 35.2924277 ], [ -81.046579, 35.2915185 ], [ -81.0479864, 35.2908386 ], [ -81.0488283, 35.2907291 ], [ -81.050931, 35.2906272 ], [ -81.0531679, 35.2912148 ], [ -81.0545646, 35.2915677 ], [ -81.0569423, 35.2922709 ], [ -81.0582021, 35.2923932 ], [ -81.0614244, 35.292298 ], [ -81.0636775, 35.2913936 ], [ -81.0626658, 35.2947153 ], [ -81.0619372, 35.2975797 ], [ -81.061765800000018, 35.3011361 ], [ -81.0617319, 35.3046931 ], [ -81.0621133, 35.309285500000016 ], [ -81.0638648, 35.3168696 ], [ -81.0653622, 35.3216983 ], [ -81.0668527, 35.327444799999981 ], [ -81.0679423, 35.3311234 ], [ -81.0686139, 35.3344552 ], [ -81.0687329, 35.3367511 ], [ -81.0685523, 35.3409957 ], [ -81.0681156, 35.3429436 ], [ -81.0676696, 35.3455804 ], [ -81.066079700000017, 35.350734499999987 ], [ -81.0640753, 35.355542 ], [ -81.0636398, 35.357031 ], [ -81.0631993, 35.3590938 ], [ -81.0633224, 35.3610453 ], [ -81.063564900000017, 35.3651778 ], [ -81.0636827, 35.3677032 ], [ -81.0644967, 35.3706915 ], [ -81.0616626, 35.3737724 ], [ -81.0589682, 35.3770839 ], [ -81.0572605, 35.3795981 ], [ -81.0565406, 35.381659 ], [ -81.0549556, 35.3861246 ], [ -81.058497, 35.3825892 ], [ -81.0661128, 35.37816 ], [ -81.0745806, 35.3725881 ], [ -81.0802213, 35.3690643 ], [ -81.0840325, 35.3665623 ], [ -81.0852998, 35.3658813 ], [ -81.0861466, 35.3655421 ], [ -81.086707, 35.365545399999988 ], [ -81.0876863, 35.365665799999988 ], [ -81.0881051, 35.3658979 ], [ -81.0882399, 35.3667016 ], [ -81.0869239, 35.3725465 ], [ -81.0846154, 35.3798767 ], [ -81.0823017, 35.387666100000011 ], [ -81.0791516, 35.3945325 ], [ -81.0771371, 35.4001432 ], [ -81.074712088506629, 35.405960062248035 ] ] ], [ [ [ -80.988026763188827, 35.402099046633538 ], [ -80.9741983, 35.4013469 ], [ -80.961907492477224, 35.400545037437901 ], [ -80.9616943, 35.3991758 ], [ -80.9609466, 35.3971229 ], [ -80.9583527, 35.3939513 ], [ -80.9574886, 35.3930469 ], [ -80.956156252303089, 35.392075336389205 ], [ -80.9562983, 35.3919019 ], [ -80.9590403, 35.390406899999988 ], [ -80.9653623, 35.3885959 ], [ -80.9703933, 35.3862699 ], [ -80.9766323, 35.3824589 ], [ -80.9790563, 35.3816929 ], [ -80.9837563, 35.3818529 ], [ -80.9855893, 35.3811049 ], [ -80.986838300000016, 35.3790209 ], [ -80.9867873, 35.3756969 ], [ -80.9853693, 35.3713939 ], [ -80.9837033, 35.368357899999985 ], [ -80.9811033, 35.3659159 ], [ -80.9764503, 35.3641669 ], [ -80.9742333, 35.3639059 ], [ -80.9732733, 35.3641969 ], [ -80.9680963, 35.3676809 ], [ -80.9673333, 35.3685599 ], [ -80.9647763, 35.3735299 ], [ -80.962899299999989, 35.3751139 ], [ -80.9612703, 35.3754619 ], [ -80.9582813, 35.3749909 ], [ -80.9567863, 35.3736639 ], [ -80.9553943, 35.3704449 ], [ -80.9516143, 35.3672939 ], [ -80.9491903, 35.3663849 ], [ -80.9416753, 35.3649259 ], [ -80.9384033, 35.3629549 ], [ -80.9358803, 35.3621169 ], [ -80.9324123, 35.3630389 ], [ -80.9294263, 35.3629999 ], [ -80.929192153248877, 35.362941731658303 ], [ -80.9275607, 35.3622678 ], [ -80.9264732, 35.3618188 ], [ -80.9256534, 35.3614796 ], [ -80.9252658, 35.3612619 ], [ -80.9250835, 35.3612175 ], [ -80.923229729007161, 35.360770236648726 ], [ -80.9230653, 35.3606549 ], [ -80.9230453, 35.3599239 ], [ -80.9247503, 35.3584679 ], [ -80.9282433, 35.3575249 ], [ -80.9309103, 35.3578179 ], [ -80.9349573, 35.3565689 ], [ -80.9390893, 35.35367990000001 ], [ -80.9425123, 35.350905900000022 ], [ -80.9436353, 35.3505889 ], [ -80.9520453, 35.3509779 ], [ -80.9564063, 35.3502649 ], [ -80.9583583, 35.3495329 ], [ -80.9621443, 35.3470529 ], [ -80.9639153, 35.3477129 ], [ -80.9670913, 35.3508009 ], [ -80.9693713, 35.3514529 ], [ -80.9726733, 35.3502639 ], [ -80.9744373, 35.3453969 ], [ -80.9762573, 35.3441209 ], [ -80.97944570336972, 35.34322803329124 ], [ -80.979507, 35.3432868 ], [ -80.980210900000017, 35.3439643 ], [ -80.980933, 35.344822 ], [ -80.9789628, 35.3530463 ], [ -80.9797973, 35.3539698 ], [ -80.9818935, 35.3547873 ], [ -80.9834256, 35.3557156 ], [ -80.9850973, 35.3569892 ], [ -80.9862045, 35.3583735 ], [ -80.9871704, 35.3598716 ], [ -80.9882821, 35.361026699999982 ], [ -80.9888244, 35.3627514 ], [ -80.9896416, 35.365166800000011 ], [ -80.9897583, 35.3674625 ], [ -80.9898538, 35.3720531 ], [ -80.9895327, 35.3760672 ], [ -80.9891866, 35.382491 ], [ -80.9884013, 35.3909772 ], [ -80.988026763188827, 35.402099046633538 ] ] ] ] } },
{ "type": "Feature", "properties": { "UnitLabel": "CZbl", "Belt": "Kings Mountain Belt", "Belt2": "Kings Mountain Belt" }, "geometry": { "type": "MultiPolygon", "coordinates": [ [ [ [ -81.236679136965023, 35.411338550492168 ], [ -81.2335464, 35.4109119 ], [ -81.2179794, 35.4109699 ], [ -81.2143864, 35.4108489 ], [ -81.2039034, 35.4104959 ], [ -81.2029734, 35.4104609 ], [ -81.1990794, 35.4103159 ], [ -81.197657254982857, 35.410266531538205 ], [ -81.197891, 35.409751 ], [ -81.2004584, 35.4040265 ], [ -81.201602900000012, 35.4011633 ], [ -81.2028932, 35.3974977 ], [ -81.2053266, 35.3911985 ], [ -81.2061832, 35.389251799999982 ], [ -81.2068899, 35.3884521 ], [ -81.2077373, 35.3876529 ], [ -81.2090083, 35.3865114 ], [ -81.2097194, 35.3852529 ], [ -81.2105764, 35.382962100000015 ], [ -81.2112961, 35.3806704 ], [ -81.2141531, 35.3735696 ], [ -81.215442, 35.3700186 ], [ -81.2196962, 35.3634983 ], [ -81.2223876, 35.3598392 ], [ -81.2249373, 35.3562939 ], [ -81.2269267, 35.3529756 ], [ -81.2286343, 35.3491969 ], [ -81.2324936, 35.3392317 ], [ -81.2349246, 35.332128499999989 ], [ -81.2373535, 35.3258286 ], [ -81.2408721, 35.3237791 ], [ -81.2408673, 35.3244677 ], [ -81.2410041, 35.3249273 ], [ -81.2415632, 35.325503500000011 ], [ -81.2428201, 35.3260832 ], [ -81.24506, 35.326552299999989 ], [ -81.2480048, 35.3264509 ], [ -81.2496891, 35.3259996 ], [ -81.2520789, 35.3249776 ], [ -81.2540532, 35.3234947 ], [ -81.256168699999989, 35.3217829 ], [ -81.2619474, 35.3168742 ], [ -81.2678832, 35.309671 ], [ -81.2715535, 35.305670700000015 ], [ -81.2738133, 35.3030411 ], [ -81.2766406, 35.2998401 ], [ -81.278337, 35.2972082 ], [ -81.282163200000014, 35.2909131 ], [ -81.2849944, 35.2865645 ], [ -81.2875396, 35.2825589 ], [ -81.2902211, 35.2797015 ], [ -81.2947423, 35.2740973 ], [ -81.2998345, 35.265970699999983 ], [ -81.3040729, 35.2601358 ], [ -81.3088851, 35.252352 ], [ -81.3114358, 35.2471984 ], [ -81.3148457, 35.2396382 ], [ -81.317251200000015, 35.235287 ], [ -81.3188036, 35.2334573 ], [ -81.3196487, 35.2324276 ], [ -81.3212007, 35.2308272 ], [ -81.324111946828808, 35.22779098907094 ], [ -81.3241474, 35.2308429 ], [ -81.3241494, 35.2311189 ], [ -81.3241504, 35.2312819 ], [ -81.3242644, 35.2411249 ], [ -81.32396940000001, 35.2435269 ], [ -81.3236274, 35.2461159 ], [ -81.3234224, 35.2476699 ], [ -81.323161399999989, 35.2496459 ], [ -81.3230574, 35.250427899999984 ], [ -81.3227814, 35.2527559 ], [ -81.3223934, 35.2560219 ], [ -81.3222594, 35.2568089 ], [ -81.3217324, 35.2604559 ], [ -81.3244864, 35.2623449 ], [ -81.3262154, 35.2628359 ], [ -81.3265574, 35.2629459 ], [ -81.326831757074885, 35.263092230133502 ], [ -81.3267182, 35.2634122 ], [ -81.3240429, 35.2708869 ], [ -81.3224709, 35.2761595 ], [ -81.3217512, 35.2793699 ], [ -81.3214507, 35.2828111 ], [ -81.3187817, 35.2837188 ], [ -81.3159752, 35.2843961 ], [ -81.3120415, 35.2862165 ], [ -81.308382, 35.2887264 ], [ -81.3045769, 35.2923829 ], [ -81.2982275, 35.2991275 ], [ -81.2932822, 35.3055332 ], [ -81.2908774, 35.3089658 ], [ -81.2884653, 35.3133163 ], [ -81.2871877, 35.3162943 ], [ -81.2860435, 35.3196171 ], [ -81.2847539, 35.324087 ], [ -81.2843193, 35.325921300000012 ], [ -81.2841742, 35.3268387 ], [ -81.2843108, 35.3275279 ], [ -81.2844477, 35.3282168 ], [ -81.2851408, 35.3290231 ], [ -81.2863979, 35.3298316 ], [ -81.2890603, 35.3304164 ], [ -81.2997207, 35.3296574 ], [ -81.2971792, 35.3321715 ], [ -81.295068, 35.3335397 ], [ -81.2921066, 35.3362814 ], [ -81.288847, 35.3417758 ], [ -81.2872871, 35.3446383 ], [ -81.2857195, 35.3486477 ], [ -81.284724, 35.350709 ], [ -81.2814719, 35.3543675 ], [ -81.279496900000012, 35.3561949 ], [ -81.2775257, 35.3576782 ], [ -81.2744262, 35.3597304 ], [ -81.2717497, 35.361325299999983 ], [ -81.2699194, 35.3626944 ], [ -81.2670977, 35.3648623 ], [ -81.2644164, 35.3673752 ], [ -81.2618724, 35.3700032 ], [ -81.258481, 35.3737749 ], [ -81.2549438, 35.3781197 ], [ -81.250559700000011, 35.3832638 ], [ -81.2449034, 35.3900081 ], [ -81.2429179, 35.3930974 ], [ -81.2403546, 35.3983641 ], [ -81.2383548, 35.4036332 ], [ -81.2369079, 35.4095936 ], [ -81.236679136965023, 35.411338550492168 ] ] ] ] } },
{ "type": "Feature", "properties": { "UnitLabel": "CZms", "Belt": "Inner Piedmont, Chauga Belt, Smith River Allochthon, and Sauratown Mountain", "Belt2": "Inner Piedmont" }, "geometry": { "type": "MultiPolygon", "coordinates": [ [ [ [ -81.423528641687838, 35.418698072719202 ], [ -81.4106224, 35.4182529 ], [ -81.4105704, 35.4182509 ], [ -81.4098564, 35.4182269 ], [ -81.373112561478663, 35.416968993760172 ], [ -81.3732871, 35.4169167 ], [ -81.378777, 35.4139524 ], [ -81.3825777, 35.4120148 ], [ -81.3876437, 35.4091632 ], [ -81.389903, 35.4066462 ], [ -81.3900473, 35.4058435 ], [ -81.3899096, 35.4052694 ], [ -81.3893488, 35.4049231 ], [ -81.3886502, 35.404576500000012 ], [ -81.3879487, 35.4041153 ], [ -81.3871124, 35.4033091 ], [ -81.386135600000017, 35.4022732 ], [ -81.3850209, 35.4008923 ], [ -81.3846044, 35.399973 ], [ -81.384611, 35.398825300000013 ], [ -81.3848961, 35.3974494 ], [ -81.3861715, 35.3949293 ], [ -81.3880076, 35.3932143 ], [ -81.3899779, 35.3919586 ], [ -81.3922267, 35.391163 ], [ -81.3941937, 35.3908252 ], [ -81.3955935, 35.3910593 ], [ -81.3964326, 35.391521 ], [ -81.3971345, 35.3919824 ], [ -81.3976917, 35.3925579 ], [ -81.3979671, 35.3932474 ], [ -81.3982461, 35.3940515 ], [ -81.3983772, 35.3955436 ], [ -81.397944900000013, 35.3978374 ], [ -81.3970929, 35.4002442 ], [ -81.3962404, 35.4021919 ], [ -81.3959556, 35.4032238 ], [ -81.3962309, 35.4039134 ], [ -81.3969324, 35.403915699999985 ], [ -81.3972144, 35.4038019 ], [ -81.3981979, 35.4033461 ], [ -81.3987617, 35.4026595 ], [ -81.3997521, 35.4016298 ], [ -81.4010204, 35.4001423 ], [ -81.4022955, 35.3979662 ], [ -81.4034326, 35.3947569 ], [ -81.4041469, 35.3926936 ], [ -81.4049956, 35.3909752 ], [ -81.4062701, 35.3887991 ], [ -81.4106575, 35.3811248 ], [ -81.4161616, 35.3737983 ], [ -81.41634324091892, 35.37348115861996 ], [ -81.429478897514812, 35.388793794873457 ], [ -81.4294279, 35.3888936 ], [ -81.4288381, 35.390046 ], [ -81.4268926, 35.3967081 ], [ -81.4256446, 35.4034835 ], [ -81.4246784, 35.4097994 ], [ -81.4241259, 35.4124407 ], [ -81.4237115, 35.4150818 ], [ -81.4232964, 35.417149 ], [ -81.423528641687838, 35.418698072719202 ] ] ], [ [ [ -81.406636570156564, 35.362152746330892 ], [ -81.4110974, 35.3673639 ], [ -81.412091323753501, 35.36852301892425 ], [ -81.411699200000015, 35.368735 ], [ -81.4107127, 35.369191 ], [ -81.4097298, 35.3699911 ], [ -81.4090221, 35.3709069 ], [ -81.4084587, 35.3714788 ], [ -81.4080328, 35.3723955 ], [ -81.4073252, 35.3736554 ], [ -81.407040100000017, 35.3743431 ], [ -81.4060506, 35.3759464 ], [ -81.4052055, 35.376976299999981 ], [ -81.4026656, 35.3798368 ], [ -81.401535, 35.3812102 ], [ -81.3997062, 35.3824667 ], [ -81.3982969, 35.3834946 ], [ -81.3967496, 35.3845223 ], [ -81.393091700000014, 35.3864611 ], [ -81.388590900000011, 35.3887408 ], [ -81.3825459, 35.3911303 ], [ -81.3769233, 35.3929468 ], [ -81.3784808, 35.3903129 ], [ -81.378763, 35.3898551 ], [ -81.3784844, 35.3891655 ], [ -81.3782055, 35.3888203 ], [ -81.3779271, 35.3883604 ], [ -81.3776518, 35.3879003 ], [ -81.377651899999989, 35.3873268 ], [ -81.3779372, 35.3867538 ], [ -81.3800517, 35.3850398 ], [ -81.3837131, 35.3824131 ], [ -81.386810700000012, 35.3797844 ], [ -81.388227, 35.377609 ], [ -81.3886597, 35.375545 ], [ -81.3882466, 35.373592799999983 ], [ -81.3869978, 35.3710639 ], [ -81.3865848, 35.3695708 ], [ -81.386729, 35.3689975 ], [ -81.3870107, 35.3685397 ], [ -81.387853, 35.3684276 ], [ -81.3884135, 35.3684295 ], [ -81.3895375, 35.3683186 ], [ -81.3934671, 35.3678726 ], [ -81.3948696, 35.3675331 ], [ -81.3962789, 35.3667344 ], [ -81.3969835, 35.3660482 ], [ -81.3971277, 35.365245599999987 ], [ -81.3971309, 35.3643276 ], [ -81.3965832, 35.3615718 ], [ -81.3968681, 35.3608841 ], [ -81.397291, 35.3605412 ], [ -81.3978511, 35.3604286 ], [ -81.3981329, 35.3604293 ], [ -81.3986933, 35.3604311 ], [ -81.3993947, 35.3605481 ], [ -81.4003747, 35.3607809 ], [ -81.4014954, 35.3610141 ], [ -81.4028981, 35.3614777 ], [ -81.4051399, 35.361944 ], [ -81.406636570156564, 35.362152746330892 ] ] ], [ [ [ -81.361228225825101, 35.416552821797708 ], [ -81.3611234, 35.4165489 ], [ -81.3442083688156, 35.415921241612942 ], [ -81.345788, 35.4148668 ], [ -81.3491733, 35.4120108 ], [ -81.3574917, 35.4049268 ], [ -81.3622865, 35.4004689 ], [ -81.364402, 35.3987551 ], [ -81.3666547, 35.3975008 ], [ -81.3689072, 35.3963612 ], [ -81.3715793, 35.3951084 ], [ -81.3715691, 35.3966002 ], [ -81.3708607, 35.3980895 ], [ -81.3700079, 35.4004961 ], [ -81.3692927, 35.4024443 ], [ -81.3684396, 35.4047364 ], [ -81.367167, 35.4067974 ], [ -81.3663142, 35.4082862 ], [ -81.364904, 35.4097729 ], [ -81.3637754, 35.4111456 ], [ -81.3623615, 35.4127471 ], [ -81.3615155, 35.4137768 ], [ -81.3609443, 35.4153813 ], [ -81.3610785, 35.416185 ], [ -81.361228225825101, 35.416552821797708 ] ] ] ] } },
{ "type": "Feature", "properties": { "UnitLabel": "DOgb", "Belt": "Charlotte and Milton Belts", "Belt2": "Charlotte Belt" }, "geometry": { "type": "MultiPolygon", "coordinates": [ [ [ [ -80.961907492477224, 35.400545037437901 ], [ -80.9548633, 35.4000849 ], [ -80.9543653, 35.3961919 ], [ -80.9552483, 35.3931839 ], [ -80.956156252303089, 35.392075336389205 ], [ -80.9574886, 35.3930469 ], [ -80.9583527, 35.3939513 ], [ -80.9609466, 35.3971229 ], [ -80.9616943, 35.3991758 ], [ -80.961907492477224, 35.400545037437901 ] ] ], [ [ [ -80.929192153248877, 35.362941731658303 ], [ -80.9247533, 35.3618389 ], [ -80.923229729007161, 35.360770236648726 ], [ -80.9250835, 35.3612175 ], [ -80.9252658, 35.3612619 ], [ -80.9256534, 35.3614796 ], [ -80.9264732, 35.3618188 ], [ -80.9275607, 35.3622678 ], [ -80.929192153248877, 35.362941731658303 ] ] ] ] } },
{ "type": "Feature", "properties": { "UnitLabel": "OCg", "Belt": "Inner Piedmont, Chauga Belt, Smith River Allochthon, and Sauratown Mountain", "Belt2": "Inner Piedmont" }, "geometry": { "type": "MultiPolygon", "coordinates": [ [ [ [ -81.373112561478663, 35.416968993760172 ], [ -81.3640754, 35.4166579 ], [ -81.3618184, 35.4165749 ], [ -81.361228225825101, 35.416552821797708 ], [ -81.3610785, 35.416185 ], [ -81.3609443, 35.4153813 ], [ -81.3615155, 35.4137768 ], [ -81.3623615, 35.4127471 ], [ -81.3637754, 35.4111456 ], [ -81.364904, 35.4097729 ], [ -81.3663142, 35.4082862 ], [ -81.367167, 35.4067974 ], [ -81.3684396, 35.4047364 ], [ -81.3692927, 35.4024443 ], [ -81.3700079, 35.4004961 ], [ -81.3708607, 35.3980895 ], [ -81.3715691, 35.3966002 ], [ -81.3715793, 35.3951084 ], [ -81.3769233, 35.3929468 ], [ -81.3825459, 35.3911303 ], [ -81.388590900000011, 35.3887408 ], [ -81.393091700000014, 35.3864611 ], [ -81.3967496, 35.3845223 ], [ -81.3982969, 35.3834946 ], [ -81.3997062, 35.3824667 ], [ -81.401535, 35.3812102 ], [ -81.4026656, 35.3798368 ], [ -81.4052055, 35.376976299999981 ], [ -81.4060506, 35.3759464 ], [ -81.407040100000017, 35.3743431 ], [ -81.4073252, 35.3736554 ], [ -81.4080328, 35.3723955 ], [ -81.4084587, 35.3714788 ], [ -81.4090221, 35.3709069 ], [ -81.4097298, 35.3699911 ], [ -81.4107127, 35.369191 ], [ -81.411699200000015, 35.368735 ], [ -81.412091323753501, 35.36852301892425 ], [ -81.41634324091892, 35.37348115861996 ], [ -81.4161616, 35.3737983 ], [ -81.4106575, 35.3811248 ], [ -81.4062701, 35.3887991 ], [ -81.4049956, 35.3909752 ], [ -81.4041469, 35.3926936 ], [ -81.4034326, 35.3947569 ], [ -81.4022955, 35.3979662 ], [ -81.4010204, 35.4001423 ], [ -81.3997521, 35.4016298 ], [ -81.3987617, 35.4026595 ], [ -81.3981979, 35.4033461 ], [ -81.3972144, 35.4038019 ], [ -81.3969324, 35.403915699999985 ], [ -81.3962309, 35.4039134 ], [ -81.3959556, 35.4032238 ], [ -81.3962404, 35.4021919 ], [ -81.3970929, 35.4002442 ], [ -81.397944900000013, 35.3978374 ], [ -81.3983772, 35.3955436 ], [ -81.3982461, 35.3940515 ], [ -81.3979671, 35.3932474 ], [ -81.3976917, 35.3925579 ], [ -81.3971345, 35.3919824 ], [ -81.3964326, 35.391521 ], [ -81.3955935, 35.3910593 ], [ -81.3941937, 35.3908252 ], [ -81.3922267, 35.391163 ], [ -81.3899779, 35.3919586 ], [ -81.3880076, 35.3932143 ], [ -81.3861715, 35.3949293 ], [ -81.3848961, 35.3974494 ], [ -81.384611, 35.398825300000013 ], [ -81.3846044, 35.399973 ], [ -81.3850209, 35.4008923 ], [ -81.386135600000017, 35.4022732 ], [ -81.3871124, 35.4033091 ], [ -81.3879487, 35.4041153 ], [ -81.3886502, 35.404576500000012 ], [ -81.3893488, 35.4049231 ], [ -81.3899096, 35.4052694 ], [ -81.3900473, 35.4058435 ], [ -81.389903, 35.4066462 ], [ -81.3876437, 35.4091632 ], [ -81.3825777, 35.4120148 ], [ -81.378777, 35.4139524 ], [ -81.3732871, 35.4169167 ], [ -81.373112561478663, 35.416968993760172 ] ] ] ] } },
{ "type": "Feature", "properties": { "UnitLabel": "CZms", "Belt": "Inner Piedmont, Chauga Belt, Smith River Allochthon, and Sauratown Mountain", "Belt2": "Inner Piedmont" }, "geometry": { "type": "MultiPolygon", "coordinates": [ [ [ [ -81.446814161436677, 35.419497770240149 ], [ -81.441676009334529, 35.419321695714864 ], [ -81.4416673, 35.4168876 ], [ -81.4424962, 35.4125234 ], [ -81.4436068, 35.4078146 ], [ -81.4439665, 35.4062699 ], [ -81.444075370006857, 35.405800864327716 ], [ -81.45145209212005, 35.414392450168663 ], [ -81.4510987, 35.4147884 ], [ -81.4503614, 35.4156088 ], [ -81.4486813, 35.4176783 ], [ -81.4470039, 35.4192888 ], [ -81.446814161436677, 35.419497770240149 ] ] ] ] } },
{ "type": "Feature", "properties": { "UnitLabel": "CZfv", "Belt": "Charlotte and Milton Belts", "Belt2": "Charlotte Belt" }, "geometry": { "type": "MultiPolygon", "coordinates": [ [ [ [ -81.120280390938106, 35.154617105526263 ], [ -81.128053950887292, 35.154966804639642 ], [ -81.1278239, 35.161176 ], [ -81.1266379, 35.1692023 ], [ -81.1249143, 35.174471300000015 ], [ -81.1213414, 35.1832877 ], [ -81.1175019, 35.1904957 ], [ -81.1104159, 35.201013 ], [ -81.1061725, 35.2061529 ], [ -81.1030584, 35.2100368 ], [ -81.0995262, 35.2135738 ], [ -81.095993299999989, 35.2173402 ], [ -81.0944352, 35.2193968 ], [ -81.0924527, 35.2221394 ], [ -81.0914537, 35.2243137 ], [ -81.0908666, 35.2274088 ], [ -81.0909686, 35.23177 ], [ -81.0914736, 35.2377403 ], [ -81.0922808, 35.2416466 ], [ -81.0925514, 35.2427955 ], [ -81.0933831, 35.2436034 ], [ -81.0943639, 35.2438388 ], [ -81.0949235, 35.243842099999988 ], [ -81.0957655, 35.2435027 ], [ -81.0976004, 35.2419068 ], [ -81.0995873, 35.2389348 ], [ -81.101433899999989, 35.2358471 ], [ -81.1042829, 35.2304698 ], [ -81.1047125, 35.2292101 ], [ -81.1062758, 35.226465 ], [ -81.105802, 35.2330031 ], [ -81.1068596, 35.2403534 ], [ -81.108488, 35.2464447 ], [ -81.1109483, 35.2533436 ], [ -81.115221, 35.26163 ], [ -81.1178433, 35.2664642 ], [ -81.1193759, 35.2671616 ], [ -81.1162423, 35.2734552 ], [ -81.1097094, 35.2837459 ], [ -81.1024693, 35.2944911 ], [ -81.0986404, 35.299518200000016 ], [ -81.0941183, 35.3040823 ], [ -81.089463, 35.3072682 ], [ -81.0848124, 35.309994800000013 ], [ -81.0828382, 35.3115896 ], [ -81.0809957, 35.3138739 ], [ -81.0798429, 35.3173097 ], [ -81.078538, 35.3220067 ], [ -81.0774732, 35.3315247 ], [ -81.0775463, 35.3390986 ], [ -81.0770829, 35.3438006 ], [ -81.0756018, 35.3523981 ], [ -81.0744368, 35.3570959 ], [ -81.0732939, 35.3594989 ], [ -81.0712975, 35.3630443 ], [ -81.0681793, 35.3668123 ], [ -81.0644967, 35.3706915 ], [ -81.0636827, 35.3677032 ], [ -81.063564900000017, 35.3651778 ], [ -81.0633224, 35.3610453 ], [ -81.0631993, 35.3590938 ], [ -81.0636398, 35.357031 ], [ -81.0640753, 35.355542 ], [ -81.066079700000017, 35.350734499999987 ], [ -81.0676696, 35.3455804 ], [ -81.0681156, 35.3429436 ], [ -81.0685523, 35.3409957 ], [ -81.0687329, 35.3367511 ], [ -81.0686139, 35.3344552 ], [ -81.0679423, 35.3311234 ], [ -81.0668527, 35.327444799999981 ], [ -81.0653622, 35.3216983 ], [ -81.0638648, 35.3168696 ], [ -81.0621133, 35.309285500000016 ], [ -81.0617319, 35.3046931 ], [ -81.061765800000018, 35.3011361 ], [ -81.0619372, 35.2975797 ], [ -81.0626658, 35.2947153 ], [ -81.0636775, 35.2913936 ], [ -81.06746, 35.2902612 ], [ -81.0693015, 35.2891326 ], [ -81.073396699999989, 35.285944 ], [ -81.0783362, 35.2818423 ], [ -81.0796079, 35.2805878 ], [ -81.0801825, 35.2793288 ], [ -81.0807607, 35.2770373 ], [ -81.0813428, 35.2745161 ], [ -81.0812281, 35.2719909 ], [ -81.0805446, 35.2700361 ], [ -81.0791606, 35.2681918 ], [ -81.0774888, 35.2670344 ], [ -81.0745581, 35.2656399 ], [ -81.071762, 35.2650494 ], [ -81.0678415, 35.2647965 ], [ -81.0674347, 35.2634168 ], [ -81.0675996, 35.2605491 ], [ -81.0681885, 35.2572249 ], [ -81.0693402, 35.2540185 ], [ -81.0703454, 35.2513856 ], [ -81.0717814, 35.2472629 ], [ -81.0722288, 35.2441674 ], [ -81.0724022, 35.2407256 ], [ -81.0722964, 35.2368235 ], [ -81.0727825, 35.2295969 ], [ -81.0747097, 35.2175593 ], [ -81.0761894, 35.2087321 ], [ -81.0777817, 35.2028891 ], [ -81.0798984, 35.2009511 ], [ -81.0827252, 35.1980988 ], [ -81.0910441, 35.1911478 ], [ -81.0971157, 35.1849862 ], [ -81.0988135, 35.1829304 ], [ -81.1068754, 35.1728782 ], [ -81.1135188, 35.1651126 ], [ -81.1174825, 35.1597414 ], [ -81.120280390938106, 35.154617105526263 ] ] ] ] } },
{ "type": "Feature", "properties": { "UnitLabel": "DOg", "Belt": "Charlotte and Milton Belts", "Belt2": "Charlotte Belt" }, "geometry": { "type": "MultiPolygon", "coordinates": [ [ [ [ -81.06746, 35.2902612 ], [ -81.0636775, 35.2913936 ], [ -81.0614244, 35.292298 ], [ -81.0582021, 35.2923932 ], [ -81.0569423, 35.2922709 ], [ -81.0545646, 35.2915677 ], [ -81.0531679, 35.2912148 ], [ -81.050931, 35.2906272 ], [ -81.0488283, 35.2907291 ], [ -81.0479864, 35.2908386 ], [ -81.046579, 35.2915185 ], [ -81.0451674, 35.2924277 ], [ -81.0429127, 35.2936761 ], [ -81.0395367, 35.2952613 ], [ -81.0327954, 35.2965958 ], [ -81.0304159, 35.2963516 ], [ -81.0287372, 35.2961115 ], [ -81.0273383, 35.2955287 ], [ -81.0259472, 35.2947166 ], [ -81.0244233, 35.2927559 ], [ -81.0240172, 35.2913764 ], [ -81.0240308, 35.28977 ], [ -81.0246067, 35.2883966 ], [ -81.0255966, 35.2873701 ], [ -81.0265817, 35.2866881 ], [ -81.027429, 35.2861197 ], [ -81.0286953, 35.285554 ], [ -81.0306674, 35.2845337 ], [ -81.0339045, 35.2831771 ], [ -81.0372794, 35.2818214 ], [ -81.0422006, 35.2801308 ], [ -81.0441731, 35.2788807 ], [ -81.0462871, 35.2775171 ], [ -81.0488365, 35.2745491 ], [ -81.0508191, 35.2724958 ], [ -81.0530804, 35.2702147 ], [ -81.0550566, 35.2688499 ], [ -81.0588553, 35.2668074 ], [ -81.0632102, 35.2655715 ], [ -81.0678415, 35.2647965 ], [ -81.071762, 35.2650494 ], [ -81.0745581, 35.2656399 ], [ -81.0774888, 35.2670344 ], [ -81.0791606, 35.2681918 ], [ -81.0805446, 35.2700361 ], [ -81.0812281, 35.2719909 ], [ -81.0813428, 35.2745161 ], [ -81.0807607, 35.2770373 ], [ -81.0801825, 35.2793288 ], [ -81.0796079, 35.2805878 ], [ -81.0783362, 35.2818423 ], [ -81.073396699999989, 35.285944 ], [ -81.0693015, 35.2891326 ], [ -81.06746, 35.2902612 ] ] ] ] } },
{ "type": "Feature", "properties": { "UnitLabel": "PzZq", "Belt": "Kings Mountain Belt", "Belt2": "Kings Mountain Belt" }, "geometry": { "type": "MultiPolygon", "coordinates": [ [ [ [ -81.324023946389374, 35.21898099837518 ], [ -81.3240164, 35.2195649 ], [ -81.324111946828808, 35.22779098907094 ], [ -81.3212007, 35.2308272 ], [ -81.3196487, 35.2324276 ], [ -81.3188036, 35.2334573 ], [ -81.317251200000015, 35.235287 ], [ -81.3148457, 35.2396382 ], [ -81.3114358, 35.2471984 ], [ -81.3088851, 35.252352 ], [ -81.3040729, 35.2601358 ], [ -81.2998345, 35.265970699999983 ], [ -81.2947423, 35.2740973 ], [ -81.2902211, 35.2797015 ], [ -81.2875396, 35.2825589 ], [ -81.2849944, 35.2865645 ], [ -81.282163200000014, 35.2909131 ], [ -81.278337, 35.2972082 ], [ -81.2766406, 35.2998401 ], [ -81.2738133, 35.3030411 ], [ -81.2715535, 35.305670700000015 ], [ -81.2678832, 35.309671 ], [ -81.2619474, 35.3168742 ], [ -81.256168699999989, 35.3217829 ], [ -81.2540532, 35.3234947 ], [ -81.2520789, 35.3249776 ], [ -81.2496891, 35.3259996 ], [ -81.2480048, 35.3264509 ], [ -81.24506, 35.326552299999989 ], [ -81.2428201, 35.3260832 ], [ -81.2415632, 35.325503500000011 ], [ -81.2410041, 35.3249273 ], [ -81.2408673, 35.3244677 ], [ -81.2408721, 35.3237791 ], [ -81.241167, 35.3218299 ], [ -81.2432915, 35.3187412 ], [ -81.2466862, 35.314052 ], [ -81.2506396, 35.3099389 ], [ -81.2544517, 35.3059396 ], [ -81.258827, 35.3017131 ], [ -81.26122, 35.3001173 ], [ -81.2647495, 35.2960019 ], [ -81.2692734, 35.2903988 ], [ -81.2726687, 35.2855938 ], [ -81.275210300000012, 35.2825066 ], [ -81.2780455, 35.2776991 ], [ -81.282431, 35.2710623 ], [ -81.2878057, 35.2630524 ], [ -81.2948739, 35.2530982 ], [ -81.2999608, 35.2456603 ], [ -81.3070183, 35.2368529 ], [ -81.3123842, 35.2297596 ], [ -81.3190014, 35.223589 ], [ -81.3218169, 35.221419800000014 ], [ -81.3235063, 35.2195903 ], [ -81.324023946389374, 35.21898099837518 ] ] ] ] } }
]
}
