{
"type": "FeatureCollection",
"name": "gaston_outline",
"crs": { "type": "name", "properties": { "name": "urn:ogc:def:crs:OGC:1.3:CRS84" } },
"features": [
{ "type": "Feature", "properties": { "STATEFP": "37", "COUNTYFP": "071", "COUNTYNS": "01008554", "AFFGEOID": "0500000US37071", "GEOID": "37071", "NAME": "Gaston", "LSAD": "06", "ALAND": 921311293.0, "AWATER": 20627404.0, "Shape_Leng": 1.5607599760099999, "Shape_Area": 0.093310987632199999 }, "geometry": { "type": "Polygon", "coordinates": [ [ [ -81.455603434999944, 35.419817900000055 ], [ -81.454184434999945, 35.41976290000008 ], [ -81.451346432999969, 35.419652900000074 ], [ -81.410622420999971, 35.418252901000074 ], [ -81.410570420999989, 35.418250901000079 ], [ -81.409856420999972, 35.418226901000025 ], [ -81.364075406999973, 35.416657903000043 ], [ -81.361818406999987, 35.416574902000036 ], [ -81.36112340699998, 35.416548902000045 ], [ -81.343365400999971, 35.41588990300005 ], [ -81.319501393999985, 35.415000904000067 ], [ -81.318110392999984, 35.414948903000038 ], [ -81.300007388999973, 35.414269904000037 ], [ -81.289711385999965, 35.413883905000034 ], [ -81.269028378999963, 35.413095905000034 ], [ -81.251687372999982, 35.412425906000067 ], [ -81.241254369999979, 35.411931906000063 ], [ -81.240919369999972, 35.411915906000047 ], [ -81.233546368999953, 35.410911906000024 ], [ -81.217979363999973, 35.410969906000048 ], [ -81.21438636299996, 35.410848907000059 ], [ -81.20390335999997, 35.41049590700004 ], [ -81.202973358999941, 35.410460907000072 ], [ -81.199079357999949, 35.41031590700004 ], [ -81.162418346999971, 35.409037908000073 ], [ -81.122807334999948, 35.407645910000042 ], [ -81.122558334999951, 35.407637909000073 ], [ -81.104033329999936, 35.406982910000067 ], [ -81.09416732699998, 35.406638910000026 ], [ -81.083829323999964, 35.406278911000072 ], [ -81.054617314999973, 35.405254911000043 ], [ -81.03067830699996, 35.404408912000065 ], [ -80.974198289999947, 35.401346914000044 ], [ -80.954863284999988, 35.400084914000047 ], [ -80.954365283999948, 35.396191913000052 ], [ -80.955248283999936, 35.39318391200004 ], [ -80.956298283999956, 35.391901912000037 ], [ -80.959040285999947, 35.39040691200006 ], [ -80.965362286999948, 35.388595912000028 ], [ -80.970393287999968, 35.386269911000056 ], [ -80.976632290999987, 35.382458909000036 ], [ -80.979056290999949, 35.381692910000027 ], [ -80.983756291999953, 35.381852909000031 ], [ -80.985589292999975, 35.381104909000044 ], [ -80.986838292999948, 35.379020909000076 ], [ -80.986787292999963, 35.375696908000066 ], [ -80.985369292999962, 35.371393907000027 ], [ -80.983703291999973, 35.368357906000028 ], [ -80.981103289999965, 35.365915906000055 ], [ -80.976450288999956, 35.364166905000047 ], [ -80.974233288999983, 35.36390590600007 ], [ -80.973273287999973, 35.364196906000075 ], [ -80.96809628699998, 35.367680907000079 ], [ -80.967333285999985, 35.368559907000076 ], [ -80.96477628599996, 35.37352990800008 ], [ -80.962899285999981, 35.37511390800006 ], [ -80.961270284999955, 35.375461908000034 ], [ -80.958281284999941, 35.374990908000029 ], [ -80.956786283999975, 35.373663908000026 ], [ -80.955394283999965, 35.370444907000035 ], [ -80.95161428199998, 35.367293907000033 ], [ -80.949190280999971, 35.366384907000054 ], [ -80.94167527899998, 35.364925907000043 ], [ -80.938403277999953, 35.362954906000027 ], [ -80.935880276999967, 35.36211690600004 ], [ -80.93241227599998, 35.363038907000032 ], [ -80.929426274999969, 35.362999907000074 ], [ -80.924753273999954, 35.361838907000049 ], [ -80.923065272999963, 35.360654906000036 ], [ -80.923045272999957, 35.359923907000052 ], [ -80.924750272999972, 35.358467907000033 ], [ -80.928243274999943, 35.357524906000037 ], [ -80.930910274999974, 35.357817906000037 ], [ -80.934957276999967, 35.356568906000064 ], [ -80.939089277999983, 35.353679905000035 ], [ -80.942512277999981, 35.350905904000058 ], [ -80.943635278999977, 35.350588904000062 ], [ -80.952045280999982, 35.350977904000047 ], [ -80.956406282999978, 35.350264903000038 ], [ -80.958358282999939, 35.349532903000068 ], [ -80.962144283999976, 35.347052903000076 ], [ -80.963915284999985, 35.347712903000058 ], [ -80.96709128599997, 35.350800903000049 ], [ -80.969371285999955, 35.351452903000052 ], [ -80.972673287999953, 35.350263903000041 ], [ -80.974437286999944, 35.345396902000061 ], [ -80.976257287999942, 35.344120901000053 ], [ -80.981474288999948, 35.342659901000047 ], [ -80.983484289999979, 35.341608901000029 ], [ -80.984897290999982, 35.34006590000007 ], [ -80.985305289999985, 35.337223900000026 ], [ -80.98467028999994, 35.336346900000024 ], [ -80.982997288999968, 35.335084900000027 ], [ -80.981808288999957, 35.333174899000028 ], [ -80.980807287999937, 35.329796898000041 ], [ -80.981690287999982, 35.327222898000059 ], [ -80.982658288999971, 35.32583089700006 ], [ -80.983625288999974, 35.324817897000059 ], [ -80.985751289999939, 35.322929897000051 ], [ -80.989186290999953, 35.320712896000032 ], [ -80.992150290999973, 35.316360895000059 ], [ -80.993368290999967, 35.313250894000078 ], [ -80.995390291999968, 35.309478894000051 ], [ -81.000876292999976, 35.30538589300005 ], [ -81.001831292999952, 35.301241891000075 ], [ -81.003857292999953, 35.297935891000066 ], [ -81.004207293999968, 35.296720890000074 ], [ -81.007062293999979, 35.289579889000038 ], [ -81.007944293999969, 35.284170887000073 ], [ -81.009335294999971, 35.280373887000053 ], [ -81.011033294999947, 35.27825088600008 ], [ -81.013005294999971, 35.274663885000052 ], [ -81.014899294999964, 35.269796884000073 ], [ -81.015053294999973, 35.268661884000039 ], [ -81.014114294999956, 35.25851988200003 ], [ -81.01382829399995, 35.257691881000028 ], [ -81.011209292999979, 35.252306880000049 ], [ -81.008871291999981, 35.250712880000037 ], [ -81.008304291999934, 35.248754880000035 ], [ -81.008271291999961, 35.248062880000077 ], [ -81.009145291999971, 35.245778879000056 ], [ -81.010210292999943, 35.243204879000075 ], [ -81.010818292999943, 35.235970877000057 ], [ -81.012462291999952, 35.231480876000035 ], [ -81.013946292999947, 35.225783875000047 ], [ -81.014269292999984, 35.224346874000048 ], [ -81.014130292999937, 35.221966874000032 ], [ -81.013822292999976, 35.221229874000073 ], [ -81.009834290999947, 35.214274872000033 ], [ -81.007324289999985, 35.21180587200007 ], [ -81.006298288999972, 35.210291872000028 ], [ -81.00527128899995, 35.207692871000063 ], [ -81.00627628899997, 35.198355869000068 ], [ -81.006143287999976, 35.195088868000028 ], [ -81.003903286999957, 35.187039867000067 ], [ -81.002970286999982, 35.184770866000065 ], [ -81.002390286999969, 35.180823866000026 ], [ -81.003415285999949, 35.171957863000046 ], [ -81.003918285999987, 35.170413864000068 ], [ -81.007309286999941, 35.165181862000054 ], [ -81.007191287999945, 35.164659862000065 ], [ -81.005839286999958, 35.160883861000059 ], [ -81.005809285999987, 35.157029861000069 ], [ -81.007470287, 35.154512860000068 ], [ -81.009513286999947, 35.153132860000028 ], [ -81.012103287999935, 35.152782860000059 ], [ -81.017115289999936, 35.154324860000031 ], [ -81.020369290999952, 35.151395859000047 ], [ -81.024724290999984, 35.148883858000033 ], [ -81.031374292999942, 35.148449858000049 ], [ -81.033198293999988, 35.148691857000074 ], [ -81.042873296999971, 35.149254858000063 ], [ -81.043628296999941, 35.149883857000077 ], [ -81.046348913999964, 35.15005941700008 ], [ -81.056211293, 35.150695832000054 ], [ -81.056765021999979, 35.150731564000068 ], [ -81.07725630799996, 35.152053857000055 ], [ -81.092787693999981, 35.15305625600007 ], [ -81.093031162999978, 35.153071970000042 ], [ -81.109298316999968, 35.154121856000074 ], [ -81.110843317, 35.154191856000068 ], [ -81.129811503999974, 35.155045760000064 ], [ -81.138210325999978, 35.155423855000038 ], [ -81.18056194199994, 35.157331856000042 ], [ -81.180725925, 35.157339243000024 ], [ -81.209818641999959, 35.158649911000055 ], [ -81.21494925199994, 35.158881053000073 ], [ -81.239361355999961, 35.159980853000036 ], [ -81.241689356999984, 35.160087852000061 ], [ -81.265241930999935, 35.160994644000027 ], [ -81.265495370999986, 35.16100440200006 ], [ -81.266534669999942, 35.161044416000038 ], [ -81.26752253799998, 35.161082450000038 ], [ -81.269449454999972, 35.161156637000033 ], [ -81.290675370999963, 35.161973851000027 ], [ -81.328042757999981, 35.163412134000055 ], [ -81.327564382999981, 35.167617851000045 ], [ -81.323671382999976, 35.189611856000056 ], [ -81.323886383999934, 35.208357860000035 ], [ -81.323903383999948, 35.209790860000055 ], [ -81.323912383999982, 35.210507860000064 ], [ -81.324024384999973, 35.218945862000055 ], [ -81.324016383999947, 35.219564862000027 ], [ -81.324147385999936, 35.230842865000056 ], [ -81.324149385999988, 35.231118865000042 ], [ -81.324150385999985, 35.231281864000039 ], [ -81.324264385999982, 35.241124867000053 ], [ -81.323969385999987, 35.24352686800006 ], [ -81.323627385999941, 35.246115868000061 ], [ -81.323422385999947, 35.24766986800006 ], [ -81.323161385999981, 35.249645869000062 ], [ -81.323057385999959, 35.250427869000077 ], [ -81.322781385999974, 35.252755869000055 ], [ -81.322393385999987, 35.256021870000041 ], [ -81.322259386999974, 35.256808870000043 ], [ -81.32173238699994, 35.260455870000044 ], [ -81.324486386999979, 35.262344872000028 ], [ -81.32621538799998, 35.26283587100005 ], [ -81.326557387999969, 35.262945871000056 ], [ -81.329872388999945, 35.264713871000026 ], [ -81.331537389999937, 35.265605871000048 ], [ -81.332322389999945, 35.266025872000057 ], [ -81.336266390999981, 35.268133872000078 ], [ -81.348999394999964, 35.274943873000041 ], [ -81.352485396999953, 35.27680887300005 ], [ -81.353510396, 35.277357873000028 ], [ -81.355965396999977, 35.281521874000077 ], [ -81.356206397999983, 35.288095875000067 ], [ -81.355131397999969, 35.294390877000069 ], [ -81.356098397999972, 35.29770787700005 ], [ -81.359860398999956, 35.301974878000067 ], [ -81.364928401999975, 35.311231880000037 ], [ -81.366474401999938, 35.314235881000059 ], [ -81.366589401999988, 35.315662881000037 ], [ -81.365134401999967, 35.320188882000025 ], [ -81.363634401999946, 35.32370188200008 ], [ -81.356685399999947, 35.330610884000066 ], [ -81.366026402999978, 35.336135886000079 ], [ -81.372057404999964, 35.33970488600005 ], [ -81.382835408999938, 35.346081887000025 ], [ -81.388137409999956, 35.348407887000064 ], [ -81.398927413999957, 35.353144888000031 ], [ -81.411097418999987, 35.367363890000036 ], [ -81.455326434999961, 35.418903900000032 ], [ -81.455603434999944, 35.419817900000055 ] ] ] } }
]
}
